$GNRMC,201500.00,A,4302.3340,N,08754.3900,W,0.0,270.0,011026,,,A*50
$GNGGA,201500.00,4302.3340,N,08754.3900,W,1,09,0.8,181.0,M,-34.0,M,,*40
$GNGSA,A,3,12,05,25,02,29,15,18,21,,,,,1.5,0.8,1.2*25
$GPGSV,3,1,09,12,62,045,47,05,40,120,45,25,33,300,44,02,17,308,41*7A
$GPGSV,3,2,09,29,25,200,38,15,60,120,33,18,12,080,29,21,08,020,22*75
$GPGSV,3,3,09,31,05,250,*40
$GNRMC,201501.00,A,4302.3340,N,08754.3912,W,3.2,270.0,011026,,,A*53
$GNGGA,201501.00,4302.3340,N,08754.3912,W,1,09,0.8,181.1,M,-34.0,M,,*43
$GNGSA,A,3,12,05,25,02,29,15,18,21,,,,,1.5,0.8,1.2*25
$GPGSV,3,1,09,12,62,045,46,05,40,120,44,25,33,300,43,02,17,308,40*7C
$GPGSV,3,2,09,29,25,200,37,15,60,120,32,18,12,080,28,21,08,020,21*79
$GPGSV,3,3,09,31,05,250,*40
$GNRMC,201502.00,A,4302.3340,N,08754.3937,W,6.5,270.0,011026,,,A*55
$GNGGA,201502.00,4302.3340,N,08754.3937,W,1,09,0.8,181.3,M,-34.0,M,,*45
$GNGSA,A,3,12,05,25,02,29,15,18,21,,,,,1.5,0.8,1.2*25
$GPGSV,3,1,09,12,62,045,45,05,40,120,43,25,33,300,42,02,17,308,39*77
$GPGSV,3,2,09,29,25,200,36,15,60,120,31,18,12,080,27,21,08,020,20*75
$GPGSV,3,3,09,31,05,250,*40
$GNRMC,201503.00,A,4302.3340,N,08754.3974,W,9.7,270.0,011026,,,A*5E
$GNGGA,201503.00,4302.3340,N,08754.3974,W,1,09,0.8,181.4,M,-34.0,M,,*44
$GNGSA,A,3,12,05,25,02,29,15,18,21,,,,,1.5,0.8,1.2*25
$GPGSV,3,1,09,12,62,045,44,05,40,120,42,25,33,300,41,02,17,308,38*75
$GPGSV,3,2,09,29,25,200,35,15,60,120,30,18,12,080,26,21,08,020,19*7C
$GPGSV,3,3,09,31,05,250,*40
$GNRMC,201504.00,A,4302.3340,N,08754.4023,W,13.0,270.0,011026,,,A*69
$GNGGA,201504.00,4302.3340,N,08754.4023,W,1,09,0.8,181.6,M,-34.0,M,,*4D
$GNGSA,A,3,12,05,25,02,29,15,18,21,,,,,1.5,0.8,1.2*25
$GPGSV,3,1,09,12,62,045,43,05,40,120,41,25,33,300,40,02,17,308,37*7F
$GPGSV,3,2,09,29,25,200,34,15,60,120,29,18,12,080,25,21,08,020,18*77
$GPGSV,3,3,09,31,05,250,*40
$GNRMC,201505.00,A,4302.3340,N,08754.4084,W,16.2,270.0,011026,,,A*62
$GNGGA,201505.00,4302.3340,N,08754.4084,W,1,09,0.8,181.7,M,-34.0,M,,*40
$GNGSA,A,3,12,05,25,02,29,15,18,21,,,,,1.5,0.8,1.2*25
$GPGSV,3,1,09,12,62,045,42,05,40,120,40,25,33,300,39,02,17,308,36*70
$GPGSV,3,2,09,29,25,200,33,15,60,120,28,18,12,080,24,21,08,020,17*7F
$GPGSV,3,3,09,31,05,250,*40
$GNRMC,201506.00,A,4302.3340,N,08754.4158,W,19.4,270.0,011026,,,A*68
$GNGGA,201506.00,4302.3340,N,08754.4158,W,1,09,0.8,181.9,M,-34.0,M,,*4D
$GNGSA,A,3,12,05,25,02,29,15,18,21,,,,,1.5,0.8,1.2*25
$GPGSV,3,1,09,12,62,045,41,05,40,120,39,25,33,300,38,02,17,308,35*7F
$GPGSV,3,2,09,29,25,200,32,15,60,120,27,18,12,080,23,21,08,020,16*77
$GPGSV,3,3,09,31,05,250,*40
$GNRMC,201507.00,A,4302.3340,N,08754.4244,W,22.7,270.0,011026,,,A*6C
$GNGGA,201507.00,4302.3340,N,08754.4244,W,1,09,0.8,182.0,M,-34.0,M,,*48
$GNGSA,A,3,12,05,25,02,29,15,18,21,,,,,1.5,0.8,1.2*25
$GPGSV,3,1,09,12,62,045,47,05,40,120,45,25,33,300,44,02,17,308,41*7A
$GPGSV,3,2,09,29,25,200,38,15,60,120,33,18,12,080,29,21,08,020,22*75
$GPGSV,3,3,09,31,05,250,*40
$GNRMC,201508.00,A,4302.3340,N,08754.4342,W,25.9,270.0,011026,,,A*6D
$GNGGA,201508.00,4302.3340,N,08754.4342,W,1,09,0.8,182.2,M,-34.0,M,,*42
$GNGSA,A,3,12,05,25,02,29,15,18,21,,,,,1.5,0.8,1.2*25
$GPGSV,3,1,09,12,62,045,46,05,40,120,44,25,33,300,43,02,17,308,40*7C
$GPGSV,3,2,09,29,25,200,37,15,60,120,32,18,12,080,28,21,08,020,21*79
$GPGSV,3,3,09,31,05,250,*40
$GNRMC,201509.00,A,4302.3340,N,08754.4453,W,29.2,270.0,011026,,,A*6C
$GNGGA,201509.00,4302.3340,N,08754.4453,W,1,09,0.8,182.3,M,-34.0,M,,*45
$GNGSA,A,3,12,05,25,02,29,15,18,21,,,,,1.5,0.8,1.2*25
$GPGSV,3,1,09,12,62,045,45,05,40,120,43,25,33,300,42,02,17,308,39*77
$GPGSV,3,2,09,29,25,200,36,15,60,120,31,18,12,080,27,21,08,020,20*75
$GPGSV,3,3,09,31,05,250,*40
$GNRMC,201510.00,A,4302.3340,N,08754.4576,W,32.4,270.0,011026,,,A*6E
$GNGGA,201510.00,4302.3340,N,08754.4576,W,1,09,0.8,182.4,M,-34.0,M,,*4C
$GNGSA,A,3,12,05,25,02,29,15,18,21,,,,,1.5,0.8,1.2*25
$GPGSV,3,1,09,12,62,045,44,05,40,120,42,25,33,300,41,02,17,308,38*75
$GPGSV,3,2,09,29,25,200,35,15,60,120,30,18,12,080,26,21,08,020,19*7C
$GPGSV,3,3,09,31,05,250,*40
$GNRMC,201511.00,A,4302.3340,N,08754.4711,W,35.6,270.0,011026,,,A*69
$GNGGA,201511.00,4302.3340,N,08754.4711,W,1,09,0.8,182.6,M,-34.0,M,,*4C
$GNGSA,A,3,12,05,25,02,29,15,18,21,,,,,1.5,0.8,1.2*25
$GPGSV,3,1,09,12,62,045,43,05,40,120,41,25,33,300,40,02,17,308,37*7F
$GPGSV,3,2,09,29,25,200,34,15,60,120,29,18,12,080,25,21,08,020,18*77
$GPGSV,3,3,09,31,05,250,*40
$GNRMC,201512.00,A,4302.3340,N,08754.4859,W,38.9,270.0,011026,,,A*6B
$GNGGA,201512.00,4302.3340,N,08754.4859,W,1,09,0.8,182.7,M,-34.0,M,,*4D
$GNGSA,A,3,12,05,25,02,29,15,18,21,,,,,1.5,0.8,1.2*25
$GPGSV,3,1,09,12,62,045,42,05,40,120,40,25,33,300,39,02,17,308,36*70
$GPGSV,3,2,09,29,25,200,33,15,60,120,28,18,12,080,24,21,08,020,17*7F
$GPGSV,3,3,09,31,05,250,*40
$GNRMC,201513.00,A,4302.3340,N,08754.5018,W,42.1,270.0,011026,,,A*63
$GNGGA,201513.00,4302.3340,N,08754.5018,W,1,09,0.8,182.8,M,-34.0,M,,*4F
$GNGSA,A,3,12,05,25,02,29,15,18,21,,,,,1.5,0.8,1.2*25
$GPGSV,3,1,09,12,62,045,41,05,40,120,39,25,33,300,38,02,17,308,35*7F
$GPGSV,3,2,09,29,25,200,32,15,60,120,27,18,12,080,23,21,08,020,16*77
$GPGSV,3,3,09,31,05,250,*40
$GNRMC,201514.00,A,4302.3340,N,08754.5191,W,45.4,270.0,011026,,,A*66
$GNGGA,201514.00,4302.3340,N,08754.5191,W,1,09,0.8,182.9,M,-34.0,M,,*49
$GNGSA,A,3,12,05,25,02,29,15,18,21,,,,,1.5,0.8,1.2*25
$GPGSV,3,1,09,12,62,045,47,05,40,120,45,25,33,300,44,02,17,308,41*7A
$GPGSV,3,2,09,29,25,200,38,15,60,120,33,18,12,080,29,21,08,020,22*75
$GPGSV,3,3,09,31,05,250,*40
$GNRMC,201515.00,A,4302.3340,N,08754.5375,W,48.6,270.0,011026,,,A*60
$GNGGA,201515.00,4302.3340,N,08754.5375,W,1,09,0.8,183.0,M,-34.0,M,,*48
$GNGSA,A,3,12,05,25,02,29,15,18,21,,,,,1.5,0.8,1.2*25
$GPGSV,3,1,09,12,62,045,46,05,40,120,44,25,33,300,43,02,17,308,40*7C
$GPGSV,3,2,09,29,25,200,37,15,60,120,32,18,12,080,28,21,08,020,21*79
$GPGSV,3,3,09,31,05,250,*40
$GNRMC,201516.00,A,4302.3340,N,08754.5559,W,48.6,270.0,011026,,,A*6B
$GNGGA,201516.00,4302.3340,N,08754.5559,W,1,09,0.8,183.2,M,-34.0,M,,*41
$GNGSA,A,3,12,05,25,02,29,15,18,21,,,,,1.5,0.8,1.2*25
$GPGSV,3,1,09,12,62,045,45,05,40,120,43,25,33,300,42,02,17,308,39*77
$GPGSV,3,2,09,29,25,200,36,15,60,120,31,18,12,080,27,21,08,020,20*75
$GPGSV,3,3,09,31,05,250,*40
$GNRMC,201517.00,A,4302.3340,N,08754.5744,W,48.6,270.0,011026,,,A*64
$GNGGA,201517.00,4302.3340,N,08754.5744,W,1,09,0.8,183.3,M,-34.0,M,,*4F
$GNGSA,A,3,12,05,25,02,29,15,18,21,,,,,1.5,0.8,1.2*25
$GPGSV,3,1,09,12,62,045,44,05,40,120,42,25,33,300,41,02,17,308,38*75
$GPGSV,3,2,09,29,25,200,35,15,60,120,30,18,12,080,26,21,08,020,19*7C
$GPGSV,3,3,09,31,05,250,*40
$GNRMC,201518.00,A,4302.3340,N,08754.5928,W,48.6,270.0,011026,,,A*6F
$GNGGA,201518.00,4302.3340,N,08754.5928,W,1,09,0.8,183.3,M,-34.0,M,,*44
$GNGSA,A,3,12,05,25,02,29,15,18,21,,,,,1.5,0.8,1.2*25
$GPGSV,3,1,09,12,62,045,43,05,40,120,41,25,33,300,40,02,17,308,37*7F
$GPGSV,3,2,09,29,25,200,34,15,60,120,29,18,12,080,25,21,08,020,18*77
$GPGSV,3,3,09,31,05,250,*40
$GNRMC,201519.00,A,4302.3340,N,08754.6112,W,48.6,270.0,011026,,,A*6C
$GNGGA,201519.00,4302.3340,N,08754.6112,W,1,09,0.8,183.4,M,-34.0,M,,*40
$GNGSA,A,3,12,05,25,02,29,15,18,21,,,,,1.5,0.8,1.2*25
$GPGSV,3,1,09,12,62,045,42,05,40,120,40,25,33,300,39,02,17,308,36*70
$GPGSV,3,2,09,29,25,200,33,15,60,120,28,18,12,080,24,21,08,020,17*7F
$GPGSV,3,3,09,31,05,250,*40
$GNRMC,201520.00,A,4302.3340,N,08754.6297,W,48.6,270.0,011026,,,A*68
$GNGGA,201520.00,4302.3340,N,08754.6297,W,1,09,0.8,183.5,M,-34.0,M,,*45
$GNGSA,A,3,12,05,25,02,29,15,18,21,,,,,1.5,0.8,1.2*25
$GPGSV,3,1,09,12,62,045,41,05,40,120,39,25,33,300,38,02,17,308,35*7F
$GPGSV,3,2,09,29,25,200,32,15,60,120,27,18,12,080,23,21,08,020,16*77
$GPGSV,3,3,09,31,05,250,*40
$GNRMC,201521.00,A,4302.3340,N,08754.6481,W,48.6,270.0,011026,,,A*68
$GNGGA,201521.00,4302.3340,N,08754.6481,W,1,09,0.8,183.6,M,-34.0,M,,*46
$GNGSA,A,3,12,05,25,02,29,15,18,21,,,,,1.5,0.8,1.2*25
$GPGSV,3,1,09,12,62,045,47,05,40,120,45,25,33,300,44,02,17,308,41*7A
$GPGSV,3,2,09,29,25,200,38,15,60,120,33,18,12,080,29,21,08,020,22*75
$GPGSV,3,3,09,31,05,250,*40
$GNRMC,201522.00,A,4302.3340,N,08754.6665,W,48.6,270.0,011026,,,A*63
$GNGGA,201522.00,4302.3340,N,08754.6665,W,1,09,0.8,183.7,M,-34.0,M,,*4C
$GNGSA,A,3,12,05,25,02,29,15,18,21,,,,,1.5,0.8,1.2*25
$GPGSV,3,1,09,12,62,045,46,05,40,120,44,25,33,300,43,02,17,308,40*7C
$GPGSV,3,2,09,29,25,200,37,15,60,120,32,18,12,080,28,21,08,020,21*79
$GPGSV,3,3,09,31,05,250,*40
$GNRMC,201523.00,A,4302.3340,N,08754.6850,W,48.6,270.0,011026,,,A*6A
$GNGGA,201523.00,4302.3340,N,08754.6850,W,1,09,0.8,183.7,M,-34.0,M,,*45
$GNGSA,A,3,12,05,25,02,29,15,18,21,,,,,1.5,0.8,1.2*25
$GPGSV,3,1,09,12,62,045,45,05,40,120,43,25,33,300,42,02,17,308,39*77
$GPGSV,3,2,09,29,25,200,36,15,60,120,31,18,12,080,27,21,08,020,20*75
$GPGSV,3,3,09,31,05,250,*40
$GNRMC,201524.00,A,4302.3340,N,08754.7034,W,48.6,270.0,011026,,,A*66
$GNGGA,201524.00,4302.3340,N,08754.7034,W,1,09,0.8,183.8,M,-34.0,M,,*46
$GNGSA,A,3,12,05,25,02,29,15,18,21,,,,,1.5,0.8,1.2*25
$GPGSV,3,1,09,12,62,045,44,05,40,120,42,25,33,300,41,02,17,308,38*75
$GPGSV,3,2,09,29,25,200,35,15,60,120,30,18,12,080,26,21,08,020,19*7C
$GPGSV,3,3,09,31,05,250,*40
$GNRMC,201525.00,A,4302.3340,N,08754.7218,W,48.6,270.0,011026,,,A*6B
$GNGGA,201525.00,4302.3340,N,08754.7218,W,1,09,0.8,183.8,M,-34.0,M,,*4B
$GNGSA,A,3,12,05,25,02,29,15,18,21,,,,,1.5,0.8,1.2*25
$GPGSV,3,1,09,12,62,045,43,05,40,120,41,25,33,300,40,02,17,308,37*7F
$GPGSV,3,2,09,29,25,200,34,15,60,120,29,18,12,080,25,21,08,020,18*77
$GPGSV,3,3,09,31,05,250,*40
$GNRMC,201526.00,A,4302.3340,N,08754.7403,W,48.6,270.0,011026,,,A*64
$GNGGA,201526.00,4302.3340,N,08754.7403,W,1,09,0.8,183.9,M,-34.0,M,,*45
$GNGSA,A,3,12,05,25,02,29,15,18,21,,,,,1.5,0.8,1.2*25
$GPGSV,3,1,09,12,62,045,42,05,40,120,40,25,33,300,39,02,17,308,36*70
$GPGSV,3,2,09,29,25,200,33,15,60,120,28,18,12,080,24,21,08,020,17*7F
$GPGSV,3,3,09,31,05,250,*40
$GNRMC,201527.00,A,4302.3340,N,08754.7587,W,48.6,270.0,011026,,,A*68
$GNGGA,201527.00,4302.3340,N,08754.7587,W,1,09,0.8,183.9,M,-34.0,M,,*49
$GNGSA,A,3,12,05,25,02,29,15,18,21,,,,,1.5,0.8,1.2*25
$GPGSV,3,1,09,12,62,045,41,05,40,120,39,25,33,300,38,02,17,308,35*7F
$GPGSV,3,2,09,29,25,200,32,15,60,120,27,18,12,080,23,21,08,020,16*77
$GPGSV,3,3,09,31,05,250,*40
$GNRMC,201528.00,A,4302.3340,N,08754.7772,W,48.6,270.0,011026,,,A*6F
$GNGGA,201528.00,4302.3340,N,08754.7772,W,1,09,0.8,184.0,M,-34.0,M,,*40
$GNGSA,A,3,12,05,25,02,29,15,18,21,,,,,1.5,0.8,1.2*25
$GPGSV,3,1,09,12,62,045,47,05,40,120,45,25,33,300,44,02,17,308,41*7A
$GPGSV,3,2,09,29,25,200,38,15,60,120,33,18,12,080,29,21,08,020,22*75
$GPGSV,3,3,09,31,05,250,*40
$GNRMC,201529.00,A,4302.3340,N,08754.7956,W,48.6,270.0,011026,,,A*66
$GNGGA,201529.00,4302.3340,N,08754.7956,W,1,09,0.8,184.0,M,-34.0,M,,*49
$GNGSA,A,3,12,05,25,02,29,15,18,21,,,,,1.5,0.8,1.2*25
$GPGSV,3,1,09,12,62,045,46,05,40,120,44,25,33,300,43,02,17,308,40*7C
$GPGSV,3,2,09,29,25,200,37,15,60,120,32,18,12,080,28,21,08,020,21*79
$GPGSV,3,3,09,31,05,250,*40
$GNRMC,201530.00,A,4302.3340,N,08754.8140,W,48.6,270.0,011026,,,A*6E
$GNGGA,201530.00,4302.3340,N,08754.8140,W,1,09,0.8,184.0,M,-34.0,M,,*41
$GNGSA,A,3,12,05,25,02,29,15,18,21,,,,,1.5,0.8,1.2*25
$GPGSV,3,1,09,12,62,045,45,05,40,120,43,25,33,300,42,02,17,308,39*77
$GPGSV,3,2,09,29,25,200,36,15,60,120,31,18,12,080,27,21,08,020,20*75
$GPGSV,3,3,09,31,05,250,*40
$GNRMC,201531.00,A,4302.3340,N,08754.8325,W,48.6,270.0,011026,,,A*6E
$GNGGA,201531.00,4302.3340,N,08754.8325,W,1,09,0.8,184.0,M,-34.0,M,,*41
$GNGSA,A,3,12,05,25,02,29,15,18,21,,,,,1.5,0.8,1.2*25
$GPGSV,3,1,09,12,62,045,44,05,40,120,42,25,33,300,41,02,17,308,38*75
$GPGSV,3,2,09,29,25,200,35,15,60,120,30,18,12,080,26,21,08,020,19*7C
$GPGSV,3,3,09,31,05,250,*40
$GNRMC,201532.00,A,4302.3340,N,08754.8509,W,48.6,270.0,011026,,,A*65
$GNGGA,201532.00,4302.3340,N,08754.8509,W,1,09,0.8,184.0,M,-34.0,M,,*4A
$GNGSA,A,3,12,05,25,02,29,15,18,21,,,,,1.5,0.8,1.2*25
$GPGSV,3,1,09,12,62,045,43,05,40,120,41,25,33,300,40,02,17,308,37*7F
$GPGSV,3,2,09,29,25,200,34,15,60,120,29,18,12,080,25,21,08,020,18*77
$GPGSV,3,3,09,31,05,250,*40
$GNRMC,201533.00,A,4302.3340,N,08754.8693,W,48.6,270.0,011026,,,A*64
$GNGGA,201533.00,4302.3340,N,08754.8693,W,1,09,0.8,184.0,M,-34.0,M,,*4B
$GNGSA,A,3,12,05,25,02,29,15,18,21,,,,,1.5,0.8,1.2*25
$GPGSV,3,1,09,12,62,045,42,05,40,120,40,25,33,300,39,02,17,308,36*70
$GPGSV,3,2,09,29,25,200,33,15,60,120,28,18,12,080,24,21,08,020,17*7F
$GPGSV,3,3,09,31,05,250,*40
$GNRMC,201534.00,A,4302.3340,N,08754.8878,W,48.6,270.0,011026,,,A*68
$GNGGA,201534.00,4302.3340,N,08754.8878,W,1,09,0.8,184.0,M,-34.0,M,,*47
$GNGSA,A,3,12,05,25,02,29,15,18,21,,,,,1.5,0.8,1.2*25
$GPGSV,3,1,09,12,62,045,41,05,40,120,39,25,33,300,38,02,17,308,35*7F
$GPGSV,3,2,09,29,25,200,32,15,60,120,27,18,12,080,23,21,08,020,16*77
$GPGSV,3,3,09,31,05,250,*40
$GNRMC,201535.00,A,4302.3340,N,08754.9062,W,48.6,270.0,011026,,,A*6B
$GNGGA,201535.00,4302.3340,N,08754.9062,W,1,09,0.8,184.0,M,-34.0,M,,*44
$GNGSA,A,3,12,05,25,02,29,15,18,21,,,,,1.5,0.8,1.2*25
$GPGSV,3,1,09,12,62,045,47,05,40,120,45,25,33,300,44,02,17,308,41*7A
$GPGSV,3,2,09,29,25,200,38,15,60,120,33,18,12,080,29,21,08,020,22*75
$GPGSV,3,3,09,31,05,250,*40
$GNRMC,201536.00,A,4302.3340,N,08754.9246,W,48.6,270.0,011026,,,A*6C
$GNGGA,201536.00,4302.3340,N,08754.9246,W,1,09,0.8,183.9,M,-34.0,M,,*4D
$GNGSA,A,3,12,05,25,02,29,15,18,21,,,,,1.5,0.8,1.2*25
$GPGSV,3,1,09,12,62,045,46,05,40,120,44,25,33,300,43,02,17,308,40*7C
$GPGSV,3,2,09,29,25,200,37,15,60,120,32,18,12,080,28,21,08,020,21*79
$GPGSV,3,3,09,31,05,250,*40
$GNRMC,201537.00,A,4302.3340,N,08754.9431,W,48.6,270.0,011026,,,A*6B
$GNGGA,201537.00,4302.3340,N,08754.9431,W,1,09,0.8,183.9,M,-34.0,M,,*4A
$GNGSA,A,3,12,05,25,02,29,15,18,21,,,,,1.5,0.8,1.2*25
$GPGSV,3,1,09,12,62,045,45,05,40,120,43,25,33,300,42,02,17,308,39*77
$GPGSV,3,2,09,29,25,200,36,15,60,120,31,18,12,080,27,21,08,020,20*75
$GPGSV,3,3,09,31,05,250,*40
$GNRMC,201538.00,A,4302.3340,N,08754.9595,W,43.2,270.0,011026,,,A*64
$GNGGA,201538.00,4302.3340,N,08754.9595,W,1,09,0.8,183.8,M,-34.0,M,,*4B
$GNGSA,A,3,12,05,25,02,29,15,18,21,,,,,1.5,0.8,1.2*25
$GPGSV,3,1,09,12,62,045,44,05,40,120,42,25,33,300,41,02,17,308,38*75
$GPGSV,3,2,09,29,25,200,35,15,60,120,30,18,12,080,26,21,08,020,19*7C
$GPGSV,3,3,09,31,05,250,*40
$GNRMC,201539.00,A,4302.3340,N,08754.9738,W,37.8,270.0,011026,,,A*69
$GNGGA,201539.00,4302.3340,N,08754.9738,W,1,09,0.8,183.8,M,-34.0,M,,*4F
$GNGSA,A,3,12,05,25,02,29,15,18,21,,,,,1.5,0.8,1.2*25
$GPGSV,3,1,09,12,62,045,43,05,40,120,41,25,33,300,40,02,17,308,37*7F
$GPGSV,3,2,09,29,25,200,34,15,60,120,29,18,12,080,25,21,08,020,18*77
$GPGSV,3,3,09,31,05,250,*40
$GNRMC,201540.00,A,4302.3340,N,08754.9861,W,32.4,270.0,011026,,,A*6D
$GNGGA,201540.00,4302.3340,N,08754.9861,W,1,09,0.8,183.7,M,-34.0,M,,*4D
$GNGSA,A,3,12,05,25,02,29,15,18,21,,,,,1.5,0.8,1.2*25
$GPGSV,3,1,09,12,62,045,42,05,40,120,40,25,33,300,39,02,17,308,36*70
$GPGSV,3,2,09,29,25,200,33,15,60,120,28,18,12,080,24,21,08,020,17*7F
$GPGSV,3,3,09,31,05,250,*40
$GNRMC,201541.00,A,4302.3340,N,08754.9963,W,27.0,270.0,011026,,,A*6F
$GNGGA,201541.00,4302.3340,N,08754.9963,W,1,09,0.8,183.7,M,-34.0,M,,*4F
$GNGSA,A,3,12,05,25,02,29,15,18,21,,,,,1.5,0.8,1.2*25
$GPGSV,3,1,09,12,62,045,41,05,40,120,39,25,33,300,38,02,17,308,35*7F
$GPGSV,3,2,09,29,25,200,32,15,60,120,27,18,12,080,23,21,08,020,16*77
$GPGSV,3,3,09,31,05,250,*40
$GNRMC,201542.00,A,4302.3340,N,08755.0045,W,21.6,270.0,011026,,,A*69
$GNGGA,201542.00,4302.3340,N,08755.0045,W,1,09,0.8,183.6,M,-34.0,M,,*48
$GNGSA,A,3,12,05,25,02,29,15,18,21,,,,,1.5,0.8,1.2*25
$GPGSV,3,1,09,12,62,045,47,05,40,120,45,25,33,300,44,02,17,308,41*7A
$GPGSV,3,2,09,29,25,200,38,15,60,120,33,18,12,080,29,21,08,020,22*75
$GPGSV,3,3,09,31,05,250,*40
$GNRMC,201543.00,A,4302.3340,N,08755.0107,W,16.2,270.0,011026,,,A*6F
$GNGGA,201543.00,4302.3340,N,08755.0107,W,1,09,0.8,183.5,M,-34.0,M,,*4D
$GNGSA,A,3,12,05,25,02,29,15,18,21,,,,,1.5,0.8,1.2*25
$GPGSV,3,1,09,12,62,045,46,05,40,120,44,25,33,300,43,02,17,308,40*7C
$GPGSV,3,2,09,29,25,200,37,15,60,120,32,18,12,080,28,21,08,020,21*79
$GPGSV,3,3,09,31,05,250,*40
$GNRMC,201544.00,A,4302.3340,N,08755.0148,W,10.8,270.0,011026,,,A*6F
$GNGGA,201544.00,4302.3340,N,08755.0148,W,1,09,0.8,183.4,M,-34.0,M,,*40
$GNGSA,A,3,12,05,25,02,29,15,18,21,,,,,1.5,0.8,1.2*25
$GPGSV,3,1,09,12,62,045,45,05,40,120,43,25,33,300,42,02,17,308,39*77
$GPGSV,3,2,09,29,25,200,36,15,60,120,31,18,12,080,27,21,08,020,20*75
$GPGSV,3,3,09,31,05,250,*40
$GNRMC,201545.00,A,4302.3340,N,08755.0148,W,0.0,0.0,011026,,,A*52
$GNGGA,201545.00,4302.3340,N,08755.0148,W,1,09,0.8,183.3,M,-34.0,M,,*46
$GNGSA,A,3,12,05,25,02,29,15,18,21,,,,,1.5,0.8,1.2*25
$GPGSV,3,1,09,12,62,045,44,05,40,120,42,25,33,300,41,02,17,308,38*75
$GPGSV,3,2,09,29,25,200,35,15,60,120,30,18,12,080,26,21,08,020,19*7C
$GPGSV,3,3,09,31,05,250,*40
$GNRMC,201546.00,A,4302.3349,N,08755.0148,W,3.2,0.0,011026,,,A*59
$GNGGA,201546.00,4302.3349,N,08755.0148,W,1,09,0.8,183.2,M,-34.0,M,,*4D
$GNGSA,A,3,12,05,25,02,29,15,18,21,,,,,1.5,0.8,1.2*25
$GPGSV,3,1,09,12,62,045,43,05,40,120,41,25,33,300,40,02,17,308,37*7F
$GPGSV,3,2,09,29,25,200,34,15,60,120,29,18,12,080,25,21,08,020,18*77
$GPGSV,3,3,09,31,05,250,*40
$GNRMC,201547.00,A,4302.3367,N,08755.0148,W,6.5,0.0,011026,,,A*56
$GNGGA,201547.00,4302.3367,N,08755.0148,W,1,09,0.8,183.1,M,-34.0,M,,*43
$GNGSA,A,3,12,05,25,02,29,15,18,21,,,,,1.5,0.8,1.2*25
$GPGSV,3,1,09,12,62,045,42,05,40,120,40,25,33,300,39,02,17,308,36*70
$GPGSV,3,2,09,29,25,200,33,15,60,120,28,18,12,080,24,21,08,020,17*7F
$GPGSV,3,3,09,31,05,250,*40
$GNRMC,201548.00,A,4302.3394,N,08755.0148,W,9.7,0.0,011026,,,A*58
$GNGGA,201548.00,4302.3394,N,08755.0148,W,1,09,0.8,183.0,M,-34.0,M,,*41
$GNGSA,A,3,12,05,25,02,29,15,18,21,,,,,1.5,0.8,1.2*25
$GPGSV,3,1,09,12,62,045,41,05,40,120,39,25,33,300,38,02,17,308,35*7F
$GPGSV,3,2,09,29,25,200,32,15,60,120,27,18,12,080,23,21,08,020,16*77
$GPGSV,3,3,09,31,05,250,*40
$GNRMC,201549.00,A,4302.3430,N,08755.0148,W,13.0,0.0,011026,,,A*6C
$GNGGA,201549.00,4302.3430,N,08755.0148,W,1,09,0.8,182.9,M,-34.0,M,,*41
$GNGSA,A,3,12,05,25,02,29,15,18,21,,,,,1.5,0.8,1.2*25
$GPGSV,3,1,09,12,62,045,47,05,40,120,45,25,33,300,44,02,17,308,41*7A
$GPGSV,3,2,09,29,25,200,38,15,60,120,33,18,12,080,29,21,08,020,22*75
$GPGSV,3,3,09,31,05,250,*40
$GNRMC,201550.00,A,4302.3475,N,08755.0148,W,16.2,0.0,011026,,,A*62
$GNGGA,201550.00,4302.3475,N,08755.0148,W,1,09,0.8,182.8,M,-34.0,M,,*49
$GNGSA,A,3,12,05,25,02,29,15,18,21,,,,,1.5,0.8,1.2*25
$GPGSV,3,1,09,12,62,045,46,05,40,120,44,25,33,300,43,02,17,308,40*7C
$GPGSV,3,2,09,29,25,200,37,15,60,120,32,18,12,080,28,21,08,020,21*79
$GPGSV,3,3,09,31,05,250,*40
$GNRMC,201551.00,A,4302.3529,N,08755.0148,W,19.4,0.0,011026,,,A*62
$GNGGA,201551.00,4302.3529,N,08755.0148,W,1,09,0.8,182.7,M,-34.0,M,,*4F
$GNGSA,A,3,12,05,25,02,29,15,18,21,,,,,1.5,0.8,1.2*25
$GPGSV,3,1,09,12,62,045,45,05,40,120,43,25,33,300,42,02,17,308,39*77
$GPGSV,3,2,09,29,25,200,36,15,60,120,31,18,12,080,27,21,08,020,20*75
$GPGSV,3,3,09,31,05,250,*40
$GNRMC,201552.00,A,4302.3592,N,08755.0148,W,22.7,0.0,011026,,,A*6A
$GNGGA,201552.00,4302.3592,N,08755.0148,W,1,09,0.8,182.5,M,-34.0,M,,*4E
$GNGSA,A,3,12,05,25,02,29,15,18,21,,,,,1.5,0.8,1.2*25
$GPGSV,3,1,09,12,62,045,44,05,40,120,42,25,33,300,41,02,17,308,38*75
$GPGSV,3,2,09,29,25,200,35,15,60,120,30,18,12,080,26,21,08,020,19*7C
$GPGSV,3,3,09,31,05,250,*40
$GNRMC,201553.00,A,4302.3663,N,08755.0148,W,25.9,0.0,011026,,,A*6F
$GNGGA,201553.00,4302.3663,N,08755.0148,W,1,09,0.8,182.4,M,-34.0,M,,*43
$GNGSA,A,3,12,05,25,02,29,15,18,21,,,,,1.5,0.8,1.2*25
$GPGSV,3,1,09,12,62,045,43,05,40,120,41,25,33,300,40,02,17,308,37*7F
$GPGSV,3,2,09,29,25,200,34,15,60,120,29,18,12,080,25,21,08,020,18*77
$GPGSV,3,3,09,31,05,250,*40
$GNRMC,201554.00,A,4302.3744,N,08755.0148,W,29.2,0.0,011026,,,A*6B
$GNGGA,201554.00,4302.3744,N,08755.0148,W,1,09,0.8,182.3,M,-34.0,M,,*47
$GNGSA,A,3,12,05,25,02,29,15,18,21,,,,,1.5,0.8,1.2*25
$GPGSV,3,1,09,12,62,045,42,05,40,120,40,25,33,300,39,02,17,308,36*70
$GPGSV,3,2,09,29,25,200,33,15,60,120,28,18,12,080,24,21,08,020,17*7F
$GPGSV,3,3,09,31,05,250,*40
$GNRMC,201555.00,A,4302.3834,N,08755.0148,W,32.4,0.0,011026,,,A*6E
$GNGGA,201555.00,4302.3834,N,08755.0148,W,1,09,0.8,182.1,M,-34.0,M,,*4C
$GNGSA,A,3,12,05,25,02,29,15,18,21,,,,,1.5,0.8,1.2*25
$GPGSV,3,1,09,12,62,045,41,05,40,120,39,25,33,300,38,02,17,308,35*7F
$GPGSV,3,2,09,29,25,200,32,15,60,120,27,18,12,080,23,21,08,020,16*77
$GPGSV,3,3,09,31,05,250,*40
$GNRMC,201556.00,A,4302.3933,N,08755.0148,W,35.6,0.0,011026,,,A*6E
$GNGGA,201556.00,4302.3933,N,08755.0148,W,1,09,0.8,182.0,M,-34.0,M,,*48
$GNGSA,A,3,12,05,25,02,29,15,18,21,,,,,1.5,0.8,1.2*25
$GPGSV,3,1,09,12,62,045,47,05,40,120,45,25,33,300,44,02,17,308,41*7A
$GPGSV,3,2,09,29,25,200,38,15,60,120,33,18,12,080,29,21,08,020,22*75
$GPGSV,3,3,09,31,05,250,*40
$GNRMC,201557.00,A,4302.4041,N,08755.0148,W,38.9,0.0,011026,,,A*66
$GNGGA,201557.00,4302.4041,N,08755.0148,W,1,09,0.8,181.9,M,-34.0,M,,*48
$GNGSA,A,3,12,05,25,02,29,15,18,21,,,,,1.5,0.8,1.2*25
$GPGSV,3,1,09,12,62,045,46,05,40,120,44,25,33,300,43,02,17,308,40*7C
$GPGSV,3,2,09,29,25,200,37,15,60,120,32,18,12,080,28,21,08,020,21*79
$GPGSV,3,3,09,31,05,250,*40
$GNRMC,201558.00,A,4302.4157,N,08755.0148,W,42.1,0.0,011026,,,A*6A
$GNGGA,201558.00,4302.4157,N,08755.0148,W,1,09,0.8,181.7,M,-34.0,M,,*4F
$GNGSA,A,3,12,05,25,02,29,15,18,21,,,,,1.5,0.8,1.2*25
$GPGSV,3,1,09,12,62,045,45,05,40,120,43,25,33,300,42,02,17,308,39*77
$GPGSV,3,2,09,29,25,200,36,15,60,120,31,18,12,080,27,21,08,020,20*75
$GPGSV,3,3,09,31,05,250,*40
$GNRMC,201559.00,A,4302.4283,N,08755.0148,W,45.4,0.0,011026,,,A*63
$GNGGA,201559.00,4302.4283,N,08755.0148,W,1,09,0.8,181.6,M,-34.0,M,,*45
$GNGSA,A,3,12,05,25,02,29,15,18,21,,,,,1.5,0.8,1.2*25
$GPGSV,3,1,09,12,62,045,44,05,40,120,42,25,33,300,41,02,17,308,38*75
$GPGSV,3,2,09,29,25,200,35,15,60,120,30,18,12,080,26,21,08,020,19*7C
$GPGSV,3,3,09,31,05,250,*40
$GNRMC,201600.00,A,4302.4418,N,08755.0148,W,48.6,0.0,011026,,,A*67
$GNGGA,201600.00,4302.4418,N,08755.0148,W,1,09,0.8,181.4,M,-34.0,M,,*4C
$GNGSA,A,3,12,05,25,02,29,15,18,21,,,,,1.5,0.8,1.2*25
$GPGSV,3,1,09,12,62,045,43,05,40,120,41,25,33,300,40,02,17,308,37*7F
$GPGSV,3,2,09,29,25,200,34,15,60,120,29,18,12,080,25,21,08,020,18*77
$GPGSV,3,3,09,31,05,250,*40
$GNRMC,201601.00,A,4302.4553,N,08755.0148,W,48.6,0.0,011026,,,A*68
$GNGGA,201601.00,4302.4553,N,08755.0148,W,1,09,0.8,181.3,M,-34.0,M,,*44
$GNGSA,A,3,12,05,25,02,29,15,18,21,,,,,1.5,0.8,1.2*25
$GPGSV,3,1,09,12,62,045,42,05,40,120,40,25,33,300,39,02,17,308,36*70
$GPGSV,3,2,09,29,25,200,33,15,60,120,28,18,12,080,24,21,08,020,17*7F
$GPGSV,3,3,09,31,05,250,*40
$GNRMC,201602.00,A,4302.4687,N,08755.0148,W,48.6,0.0,011026,,,A*61
$GNGGA,201602.00,4302.4687,N,08755.0148,W,1,09,0.8,181.1,M,-34.0,M,,*4F
$GNGSA,A,3,12,05,25,02,29,15,18,21,,,,,1.5,0.8,1.2*25
$GPGSV,3,1,09,12,62,045,41,05,40,120,39,25,33,300,38,02,17,308,35*7F
$GPGSV,3,2,09,29,25,200,32,15,60,120,27,18,12,080,23,21,08,020,16*77
$GPGSV,3,3,09,31,05,250,*40
$GNRMC,201603.00,A,4302.4822,N,08755.0148,W,48.6,0.0,011026,,,A*61
$GNGGA,201603.00,4302.4822,N,08755.0148,W,1,09,0.8,181.0,M,-34.0,M,,*4E
$GNGSA,A,3,12,05,25,02,29,15,18,21,,,,,1.5,0.8,1.2*25
$GPGSV,3,1,09,12,62,045,47,05,40,120,45,25,33,300,44,02,17,308,41*7A
$GPGSV,3,2,09,29,25,200,38,15,60,120,33,18,12,080,29,21,08,020,22*75
$GPGSV,3,3,09,31,05,250,*40
$GNRMC,201604.00,A,4302.4957,N,08755.0148,W,48.6,0.0,011026,,,A*65
$GNGGA,201604.00,4302.4957,N,08755.0148,W,1,09,0.8,180.8,M,-34.0,M,,*43
$GNGSA,A,3,12,05,25,02,29,15,18,21,,,,,1.5,0.8,1.2*25
$GPGSV,3,1,09,12,62,045,46,05,40,120,44,25,33,300,43,02,17,308,40*7C
$GPGSV,3,2,09,29,25,200,37,15,60,120,32,18,12,080,28,21,08,020,21*79
$GPGSV,3,3,09,31,05,250,*40
$GNRMC,201605.00,A,4302.5092,N,08755.0148,W,48.6,0.0,011026,,,A*65
$GNGGA,201605.00,4302.5092,N,08755.0148,W,1,09,0.8,180.7,M,-34.0,M,,*4C
$GNGSA,A,3,12,05,25,02,29,15,18,21,,,,,1.5,0.8,1.2*25
$GPGSV,3,1,09,12,62,045,45,05,40,120,43,25,33,300,42,02,17,308,39*77
$GPGSV,3,2,09,29,25,200,36,15,60,120,31,18,12,080,27,21,08,020,20*75
$GPGSV,3,3,09,31,05,250,*40
$GNRMC,201606.00,A,4302.5226,N,08755.0148,W,48.6,0.0,011026,,,A*6B
$GNGGA,201606.00,4302.5226,N,08755.0148,W,1,09,0.8,180.5,M,-34.0,M,,*40
$GNGSA,A,3,12,05,25,02,29,15,18,21,,,,,1.5,0.8,1.2*25
$GPGSV,3,1,09,12,62,045,44,05,40,120,42,25,33,300,41,02,17,308,38*75
$GPGSV,3,2,09,29,25,200,35,15,60,120,30,18,12,080,26,21,08,020,19*7C
$GPGSV,3,3,09,31,05,250,*40
$GNRMC,201607.00,A,4302.5361,N,08755.0148,W,48.6,0.0,011026,,,A*68
$GNGGA,201607.00,4302.5361,N,08755.0148,W,1,09,0.8,180.4,M,-34.0,M,,*42
$GNGSA,A,3,12,05,25,02,29,15,18,21,,,,,1.5,0.8,1.2*25
$GPGSV,3,1,09,12,62,045,43,05,40,120,41,25,33,300,40,02,17,308,37*7F
$GPGSV,3,2,09,29,25,200,34,15,60,120,29,18,12,080,25,21,08,020,18*77
$GPGSV,3,3,09,31,05,250,*40
$GNRMC,201608.00,A,4302.5496,N,08755.0148,W,48.6,0.0,011026,,,A*68
$GNGGA,201608.00,4302.5496,N,08755.0148,W,1,09,0.8,180.2,M,-34.0,M,,*44
$GNGSA,A,3,12,05,25,02,29,15,18,21,,,,,1.5,0.8,1.2*25
$GPGSV,3,1,09,12,62,045,42,05,40,120,40,25,33,300,39,02,17,308,36*70
$GPGSV,3,2,09,29,25,200,33,15,60,120,28,18,12,080,24,21,08,020,17*7F
$GPGSV,3,3,09,31,05,250,*40
$GNRMC,201609.00,A,4302.5631,N,08755.0148,W,48.6,0.0,011026,,,A*66
$GNGGA,201609.00,4302.5631,N,08755.0148,W,1,09,0.8,180.1,M,-34.0,M,,*49
$GNGSA,A,3,12,05,25,02,29,15,18,21,,,,,1.5,0.8,1.2*25
$GPGSV,3,1,09,12,62,045,41,05,40,120,39,25,33,300,38,02,17,308,35*7F
$GPGSV,3,2,09,29,25,200,32,15,60,120,27,18,12,080,23,21,08,020,16*77
$GPGSV,3,3,09,31,05,250,*40
$GNRMC,201610.00,A,4302.5765,N,08755.0148,W,48.6,0.0,011026,,,A*6E
$GNGGA,201610.00,4302.5765,N,08755.0148,W,1,09,0.8,179.9,M,-34.0,M,,*4F
$GNGSA,A,3,12,05,25,02,29,15,18,21,,,,,1.5,0.8,1.2*25
$GPGSV,3,1,09,12,62,045,47,05,40,120,45,25,33,300,44,02,17,308,41*7A
$GPGSV,3,2,09,29,25,200,38,15,60,120,33,18,12,080,29,21,08,020,22*75
$GPGSV,3,3,09,31,05,250,*40
$GNRMC,201611.00,A,4302.5900,N,08755.0148,W,48.6,0.0,011026,,,A*62
$GNGGA,201611.00,4302.5900,N,08755.0148,W,1,09,0.8,179.8,M,-34.0,M,,*42
$GNGSA,A,3,12,05,25,02,29,15,18,21,,,,,1.5,0.8,1.2*25
$GPGSV,3,1,09,12,62,045,46,05,40,120,44,25,33,300,43,02,17,308,40*7C
$GPGSV,3,2,09,29,25,200,37,15,60,120,32,18,12,080,28,21,08,020,21*79
$GPGSV,3,3,09,31,05,250,*40
$GNRMC,201612.00,A,4302.6035,N,08755.0148,W,48.6,0.0,011026,,,A*6D
$GNGGA,201612.00,4302.6035,N,08755.0148,W,1,09,0.8,179.7,M,-34.0,M,,*42
$GNGSA,A,3,12,05,25,02,29,15,18,21,,,,,1.5,0.8,1.2*25
$GPGSV,3,1,09,12,62,045,45,05,40,120,43,25,33,300,42,02,17,308,39*77
$GPGSV,3,2,09,29,25,200,36,15,60,120,31,18,12,080,27,21,08,020,20*75
$GPGSV,3,3,09,31,05,250,*40
$GNRMC,201613.00,A,4302.6170,N,08755.0148,W,48.6,0.0,011026,,,A*6C
$GNGGA,201613.00,4302.6170,N,08755.0148,W,1,09,0.8,179.5,M,-34.0,M,,*41
$GNGSA,A,3,12,05,25,02,29,15,18,21,,,,,1.5,0.8,1.2*25
$GPGSV,3,1,09,12,62,045,44,05,40,120,42,25,33,300,41,02,17,308,38*75
$GPGSV,3,2,09,29,25,200,35,15,60,120,30,18,12,080,26,21,08,020,19*7C
$GPGSV,3,3,09,31,05,250,*40
$GNRMC,201614.00,A,4302.6304,N,08755.0148,W,48.6,0.0,011026,,,A*6A
$GNGGA,201614.00,4302.6304,N,08755.0148,W,1,09,0.8,179.4,M,-34.0,M,,*46
$GNGSA,A,3,12,05,25,02,29,15,18,21,,,,,1.5,0.8,1.2*25
$GPGSV,3,1,09,12,62,045,43,05,40,120,41,25,33,300,40,02,17,308,37*7F
$GPGSV,3,2,09,29,25,200,34,15,60,120,29,18,12,080,25,21,08,020,18*77
$GPGSV,3,3,09,31,05,250,*40
$GNRMC,201615.00,A,4302.6439,N,08755.0148,W,48.6,0.0,011026,,,A*62
$GNGGA,201615.00,4302.6439,N,08755.0148,W,1,09,0.8,179.3,M,-34.0,M,,*49
$GNGSA,A,3,12,05,25,02,29,15,18,21,,,,,1.5,0.8,1.2*25
$GPGSV,3,1,09,12,62,045,42,05,40,120,40,25,33,300,39,02,17,308,36*70
$GPGSV,3,2,09,29,25,200,33,15,60,120,28,18,12,080,24,21,08,020,17*7F
$GPGSV,3,3,09,31,05,250,*40
$GNRMC,201616.00,A,4302.6574,N,08755.0148,W,48.6,0.0,011026,,,A*69
$GNGGA,201616.00,4302.6574,N,08755.0148,W,1,09,0.8,179.2,M,-34.0,M,,*43
$GNGSA,A,3,12,05,25,02,29,15,18,21,,,,,1.5,0.8,1.2*25
$GPGSV,3,1,09,12,62,045,41,05,40,120,39,25,33,300,38,02,17,308,35*7F
$GPGSV,3,2,09,29,25,200,32,15,60,120,27,18,12,080,23,21,08,020,16*77
$GPGSV,3,3,09,31,05,250,*40
$GNRMC,201617.00,A,4302.6709,N,08755.0148,W,48.6,0.0,011026,,,A*60
$GNGGA,201617.00,4302.6709,N,08755.0148,W,1,09,0.8,179.0,M,-34.0,M,,*48
$GNGSA,A,3,12,05,25,02,29,15,18,21,,,,,1.5,0.8,1.2*25
$GPGSV,3,1,09,12,62,045,47,05,40,120,45,25,33,300,44,02,17,308,41*7A
$GPGSV,3,2,09,29,25,200,38,15,60,120,33,18,12,080,29,21,08,020,22*75
$GPGSV,3,3,09,31,05,250,*40
$GNRMC,201618.00,A,4302.6843,N,08755.0148,W,48.6,0.0,011026,,,A*6E
$GNGGA,201618.00,4302.6843,N,08755.0148,W,1,09,0.8,178.9,M,-34.0,M,,*4E
$GNGSA,A,3,12,05,25,02,29,15,18,21,,,,,1.5,0.8,1.2*25
$GPGSV,3,1,09,12,62,045,46,05,40,120,44,25,33,300,43,02,17,308,40*7C
$GPGSV,3,2,09,29,25,200,37,15,60,120,32,18,12,080,28,21,08,020,21*79
$GPGSV,3,3,09,31,05,250,*40
$GNRMC,201619.00,A,4302.6978,N,08755.0148,W,48.6,0.0,011026,,,A*66
$GNGGA,201619.00,4302.6978,N,08755.0148,W,1,09,0.8,178.8,M,-34.0,M,,*47
$GNGSA,A,3,12,05,25,02,29,15,18,21,,,,,1.5,0.8,1.2*25
$GPGSV,3,1,09,12,62,045,45,05,40,120,43,25,33,300,42,02,17,308,39*77
$GPGSV,3,2,09,29,25,200,36,15,60,120,31,18,12,080,27,21,08,020,20*75
$GPGSV,3,3,09,31,05,250,*40
$GNRMC,201620.00,A,4302.7113,N,08755.0148,W,48.6,0.0,011026,,,A*68
$GNGGA,201620.00,4302.7113,N,08755.0148,W,1,09,0.8,178.7,M,-34.0,M,,*46
$GNGSA,A,3,12,05,25,02,29,15,18,21,,,,,1.5,0.8,1.2*25
$GPGSV,3,1,09,12,62,045,44,05,40,120,42,25,33,300,41,02,17,308,38*75
$GPGSV,3,2,09,29,25,200,35,15,60,120,30,18,12,080,26,21,08,020,19*7C
$GPGSV,3,3,09,31,05,250,*40
$GNRMC,201621.00,A,4302.7248,N,08755.0148,W,48.6,0.0,011026,,,A*64
$GNGGA,201621.00,4302.7248,N,08755.0148,W,1,09,0.8,178.6,M,-34.0,M,,*4B
$GNGSA,A,3,12,05,25,02,29,15,18,21,,,,,1.5,0.8,1.2*25
$GPGSV,3,1,09,12,62,045,43,05,40,120,41,25,33,300,40,02,17,308,37*7F
$GPGSV,3,2,09,29,25,200,34,15,60,120,29,18,12,080,25,21,08,020,18*77
$GPGSV,3,3,09,31,05,250,*40
$GNRMC,201622.00,A,4302.7382,N,08755.0148,W,48.6,0.0,011026,,,A*60
$GNGGA,201622.00,4302.7382,N,08755.0148,W,1,09,0.8,178.5,M,-34.0,M,,*4C
$GNGSA,A,3,12,05,25,02,29,15,18,21,,,,,1.5,0.8,1.2*25
$GPGSV,3,1,09,12,62,045,42,05,40,120,40,25,33,300,39,02,17,308,36*70
$GPGSV,3,2,09,29,25,200,33,15,60,120,28,18,12,080,24,21,08,020,17*7F
$GPGSV,3,3,09,31,05,250,*40
$GNRMC,201623.00,A,4302.7502,N,08755.0148,W,43.2,0.0,011026,,,A*60
$GNGGA,201623.00,4302.7502,N,08755.0148,W,1,09,0.8,178.5,M,-34.0,M,,*43
$GNGSA,A,3,12,05,25,02,29,15,18,21,,,,,1.5,0.8,1.2*25
$GPGSV,3,1,09,12,62,045,41,05,40,120,39,25,33,300,38,02,17,308,35*7F
$GPGSV,3,2,09,29,25,200,32,15,60,120,27,18,12,080,23,21,08,020,16*77
$GPGSV,3,3,09,31,05,250,*40
$GNRMC,201624.00,A,4302.7607,N,08755.0148,W,37.8,0.0,011026,,,A*68
$GNGGA,201624.00,4302.7607,N,08755.0148,W,1,09,0.8,178.4,M,-34.0,M,,*43
$GNGSA,A,3,12,05,25,02,29,15,18,21,,,,,1.5,0.8,1.2*25
$GPGSV,3,1,09,12,62,045,47,05,40,120,45,25,33,300,44,02,17,308,41*7A
$GPGSV,3,2,09,29,25,200,38,15,60,120,33,18,12,080,29,21,08,020,22*75
$GPGSV,3,3,09,31,05,250,*40
$GNRMC,201625.00,A,4302.7697,N,08755.0148,W,32.4,0.0,011026,,,A*69
$GNGGA,201625.00,4302.7697,N,08755.0148,W,1,09,0.8,178.3,M,-34.0,M,,*4C
$GNGSA,A,3,12,05,25,02,29,15,18,21,,,,,1.5,0.8,1.2*25
$GPGSV,3,1,09,12,62,045,46,05,40,120,44,25,33,300,43,02,17,308,40*7C
$GPGSV,3,2,09,29,25,200,37,15,60,120,32,18,12,080,28,21,08,020,21*79
$GPGSV,3,3,09,31,05,250,*40
$GNRMC,201626.00,A,4302.7772,N,08755.0148,W,27.0,0.0,011026,,,A*60
$GNGGA,201626.00,4302.7772,N,08755.0148,W,1,09,0.8,178.3,M,-34.0,M,,*45
$GNGSA,A,3,12,05,25,02,29,15,18,21,,,,,1.5,0.8,1.2*25
$GPGSV,3,1,09,12,62,045,45,05,40,120,43,25,33,300,42,02,17,308,39*77
$GPGSV,3,2,09,29,25,200,36,15,60,120,31,18,12,080,27,21,08,020,20*75
$GPGSV,3,3,09,31,05,250,*40
$GNRMC,201627.00,A,4302.7832,N,08755.0148,W,21.6,0.0,011026,,,A*6A
$GNGGA,201627.00,4302.7832,N,08755.0148,W,1,09,0.8,178.2,M,-34.0,M,,*4E
$GNGSA,A,3,12,05,25,02,29,15,18,21,,,,,1.5,0.8,1.2*25
$GPGSV,3,1,09,12,62,045,44,05,40,120,42,25,33,300,41,02,17,308,38*75
$GPGSV,3,2,09,29,25,200,35,15,60,120,30,18,12,080,26,21,08,020,19*7C
$GPGSV,3,3,09,31,05,250,*40
$GNRMC,201628.00,A,4302.7876,N,08755.0148,W,16.2,0.0,011026,,,A*65
$GNGGA,201628.00,4302.7876,N,08755.0148,W,1,09,0.8,178.1,M,-34.0,M,,*42
$GNGSA,A,3,12,05,25,02,29,15,18,21,,,,,1.5,0.8,1.2*25
$GPGSV,3,1,09,12,62,045,43,05,40,120,41,25,33,300,40,02,17,308,37*7F
$GPGSV,3,2,09,29,25,200,34,15,60,120,29,18,12,080,25,21,08,020,18*77
$GPGSV,3,3,09,31,05,250,*40
$GNRMC,201629.00,A,4302.7906,N,08755.0148,W,10.8,0.0,011026,,,A*6E
$GNGGA,201629.00,4302.7906,N,08755.0148,W,1,09,0.8,178.1,M,-34.0,M,,*45
$GNGSA,A,3,12,05,25,02,29,15,18,21,,,,,1.5,0.8,1.2*25
$GPGSV,3,1,09,12,62,045,42,05,40,120,40,25,33,300,39,02,17,308,36*70
$GPGSV,3,2,09,29,25,200,33,15,60,120,28,18,12,080,24,21,08,020,17*7F
$GPGSV,3,3,09,31,05,250,*40
$GNRMC,201630.00,A,4302.7906,N,08755.0148,W,0.0,90.0,011026,,,A*66
$GNGGA,201630.00,4302.7906,N,08755.0148,W,1,09,0.8,178.1,M,-34.0,M,,*4D
$GNGSA,A,3,12,05,25,02,29,15,18,21,,,,,1.5,0.8,1.2*25
$GPGSV,3,1,09,12,62,045,41,05,40,120,39,25,33,300,38,02,17,308,35*7F
$GPGSV,3,2,09,29,25,200,32,15,60,120,27,18,12,080,23,21,08,020,16*77
$GPGSV,3,3,09,31,05,250,*40
$GNRMC,201631.00,A,4302.7906,N,08755.0135,W,3.2,90.0,011026,,,A*6C
$GNGGA,201631.00,4302.7906,N,08755.0135,W,1,09,0.8,178.0,M,-34.0,M,,*47
$GNGSA,A,3,12,05,25,02,29,15,18,21,,,,,1.5,0.8,1.2*25
$GPGSV,3,1,09,12,62,045,47,05,40,120,45,25,33,300,44,02,17,308,41*7A
$GPGSV,3,2,09,29,25,200,38,15,60,120,33,18,12,080,29,21,08,020,22*75
$GPGSV,3,3,09,31,05,250,*40
$GNRMC,201632.00,A,4302.7906,N,08755.0111,W,6.5,90.0,011026,,,A*6B
$GNGGA,201632.00,4302.7906,N,08755.0111,W,1,09,0.8,178.0,M,-34.0,M,,*42
$GNGSA,A,3,12,05,25,02,29,15,18,21,,,,,1.5,0.8,1.2*25
$GPGSV,3,1,09,12,62,045,46,05,40,120,44,25,33,300,43,02,17,308,40*7C
$GPGSV,3,2,09,29,25,200,37,15,60,120,32,18,12,080,28,21,08,020,21*79
$GPGSV,3,3,09,31,05,250,*40
$GNRMC,201633.00,A,4302.7906,N,08755.0074,W,9.7,90.0,011026,,,A*65
$GNGGA,201633.00,4302.7906,N,08755.0074,W,1,09,0.8,178.0,M,-34.0,M,,*41
$GNGSA,A,3,12,05,25,02,29,15,18,21,,,,,1.5,0.8,1.2*25
$GPGSV,3,1,09,12,62,045,45,05,40,120,43,25,33,300,42,02,17,308,39*77
$GPGSV,3,2,09,29,25,200,36,15,60,120,31,18,12,080,27,21,08,020,20*75
$GPGSV,3,3,09,31,05,250,*40
$GNRMC,201634.00,A,4302.7906,N,08755.0025,W,13.0,90.0,011026,,,A*5A
$GNGGA,201634.00,4302.7906,N,08755.0025,W,1,09,0.8,178.0,M,-34.0,M,,*42
$GNGSA,A,3,12,05,25,02,29,15,18,21,,,,,1.5,0.8,1.2*25
$GPGSV,3,1,09,12,62,045,44,05,40,120,42,25,33,300,41,02,17,308,38*75
$GPGSV,3,2,09,29,25,200,35,15,60,120,30,18,12,080,26,21,08,020,19*7C
$GPGSV,3,3,09,31,05,250,*40
$GNRMC,201635.00,A,4302.7906,N,08754.9963,W,16.2,90.0,011026,,,A*5F
$GNGGA,201635.00,4302.7906,N,08754.9963,W,1,09,0.8,178.0,M,-34.0,M,,*40
$GNGSA,A,3,12,05,25,02,29,15,18,21,,,,,1.5,0.8,1.2*25
$GPGSV,3,1,09,12,62,045,43,05,40,120,41,25,33,300,40,02,17,308,37*7F
$GPGSV,3,2,09,29,25,200,34,15,60,120,29,18,12,080,25,21,08,020,18*77
$GPGSV,3,3,09,31,05,250,*40
$GNRMC,201636.00,A,4302.7906,N,08754.9890,W,19.4,90.0,011026,,,A*58
$GNGGA,201636.00,4302.7906,N,08754.9890,W,1,09,0.8,178.0,M,-34.0,M,,*4E
$GNGSA,A,3,12,05,25,02,29,15,18,21,,,,,1.5,0.8,1.2*25
$GPGSV,3,1,09,12,62,045,42,05,40,120,40,25,33,300,39,02,17,308,36*70
$GPGSV,3,2,09,29,25,200,33,15,60,120,28,18,12,080,24,21,08,020,17*7F
$GPGSV,3,3,09,31,05,250,*40
$GNRMC,201637.00,A,4302.7906,N,08754.9804,W,22.7,90.0,011026,,,A*5F
$GNGGA,201637.00,4302.7906,N,08754.9804,W,1,09,0.8,178.0,M,-34.0,M,,*42
$GNGSA,A,3,12,05,25,02,29,15,18,21,,,,,1.5,0.8,1.2*25
$GPGSV,3,1,09,12,62,045,41,05,40,120,39,25,33,300,38,02,17,308,35*7F
$GPGSV,3,2,09,29,25,200,32,15,60,120,27,18,12,080,23,21,08,020,16*77
$GPGSV,3,3,09,31,05,250,*40
$GNRMC,201638.00,A,4302.7906,N,08754.9705,W,25.9,90.0,011026,,,A*57
$GNGGA,201638.00,4302.7906,N,08754.9705,W,1,09,0.8,178.1,M,-34.0,M,,*42
$GNGSA,A,3,12,05,25,02,29,15,18,21,,,,,1.5,0.8,1.2*25
$GPGSV,3,1,09,12,62,045,47,05,40,120,45,25,33,300,44,02,17,308,41*7A
$GPGSV,3,2,09,29,25,200,38,15,60,120,33,18,12,080,29,21,08,020,22*75
$GPGSV,3,3,09,31,05,250,*40
$GNRMC,201639.00,A,4302.7906,N,08754.9595,W,29.2,90.0,011026,,,A*5A
$GNGGA,201639.00,4302.7906,N,08754.9595,W,1,09,0.8,178.1,M,-34.0,M,,*48
$GNGSA,A,3,12,05,25,02,29,15,18,21,,,,,1.5,0.8,1.2*25
$GPGSV,3,1,09,12,62,045,46,05,40,120,44,25,33,300,43,02,17,308,40*7C
$GPGSV,3,2,09,29,25,200,37,15,60,120,32,18,12,080,28,21,08,020,21*79
$GPGSV,3,3,09,31,05,250,*40
$GNRMC,201640.00,A,4302.7906,N,08754.9472,W,32.4,90.0,011026,,,A*50
$GNGGA,201640.00,4302.7906,N,08754.9472,W,1,09,0.8,178.1,M,-34.0,M,,*4E
$GNGSA,A,3,12,05,25,02,29,15,18,21,,,,,1.5,0.8,1.2*25
$GPGSV,3,1,09,12,62,045,45,05,40,120,43,25,33,300,42,02,17,308,39*77
$GPGSV,3,2,09,29,25,200,36,15,60,120,31,18,12,080,27,21,08,020,20*75
$GPGSV,3,3,09,31,05,250,*40
$GNRMC,201641.00,A,4302.7906,N,08754.9336,W,35.6,90.0,011026,,,A*53
$GNGGA,201641.00,4302.7906,N,08754.9336,W,1,09,0.8,178.2,M,-34.0,M,,*4B
$GNGSA,A,3,12,05,25,02,29,15,18,21,,,,,1.5,0.8,1.2*25
$GPGSV,3,1,09,12,62,045,44,05,40,120,42,25,33,300,41,02,17,308,38*75
$GPGSV,3,2,09,29,25,200,35,15,60,120,30,18,12,080,26,21,08,020,19*7C
$GPGSV,3,3,09,31,05,250,*40
$GNRMC,201642.00,A,4302.7906,N,08754.9189,W,38.9,90.0,011026,,,A*54
$GNGGA,201642.00,4302.7906,N,08754.9189,W,1,09,0.8,178.2,M,-34.0,M,,*4E
$GNGSA,A,3,12,05,25,02,29,15,18,21,,,,,1.5,0.8,1.2*25
$GPGSV,3,1,09,12,62,045,43,05,40,120,41,25,33,300,40,02,17,308,37*7F
$GPGSV,3,2,09,29,25,200,34,15,60,120,29,18,12,080,25,21,08,020,18*77
$GPGSV,3,3,09,31,05,250,*40
$GNRMC,201643.00,A,4302.7906,N,08754.9029,W,42.1,90.0,011026,,,A*5B
$GNGGA,201643.00,4302.7906,N,08754.9029,W,1,09,0.8,178.3,M,-34.0,M,,*45
$GNGSA,A,3,12,05,25,02,29,15,18,21,,,,,1.5,0.8,1.2*25
$GPGSV,3,1,09,12,62,045,42,05,40,120,40,25,33,300,39,02,17,308,36*70
$GPGSV,3,2,09,29,25,200,33,15,60,120,28,18,12,080,24,21,08,020,17*7F
$GPGSV,3,3,09,31,05,250,*40
$GNRMC,201644.00,A,4302.7906,N,08754.8857,W,45.4,90.0,011026,,,A*5E
$GNGGA,201644.00,4302.7906,N,08754.8857,W,1,09,0.8,178.3,M,-34.0,M,,*42
$GNGSA,A,3,12,05,25,02,29,15,18,21,,,,,1.5,0.8,1.2*25
$GPGSV,3,1,09,12,62,045,41,05,40,120,39,25,33,300,38,02,17,308,35*7F
$GPGSV,3,2,09,29,25,200,32,15,60,120,27,18,12,080,23,21,08,020,16*77
$GPGSV,3,3,09,31,05,250,*40
$GNRMC,201645.00,A,4302.7906,N,08754.8673,W,48.6,90.0,011026,,,A*58
$GNGGA,201645.00,4302.7906,N,08754.8673,W,1,09,0.8,178.4,M,-34.0,M,,*4C
$GNGSA,A,3,12,05,25,02,29,15,18,21,,,,,1.5,0.8,1.2*25
$GPGSV,3,1,09,12,62,045,47,05,40,120,45,25,33,300,44,02,17,308,41*7A
$GPGSV,3,2,09,29,25,200,38,15,60,120,33,18,12,080,29,21,08,020,22*75
$GPGSV,3,3,09,31,05,250,*40
$GNRMC,201646.00,A,4302.7906,N,08754.8488,W,48.6,90.0,011026,,,A*5D
$GNGGA,201646.00,4302.7906,N,08754.8488,W,1,09,0.8,178.5,M,-34.0,M,,*48
$GNGSA,A,3,12,05,25,02,29,15,18,21,,,,,1.5,0.8,1.2*25
$GPGSV,3,1,09,12,62,045,46,05,40,120,44,25,33,300,43,02,17,308,40*7C
$GPGSV,3,2,09,29,25,200,37,15,60,120,32,18,12,080,28,21,08,020,21*79
$GPGSV,3,3,09,31,05,250,*40
$GNRMC,201647.00,A,4302.7906,N,08754.8304,W,48.6,90.0,011026,,,A*5F
$GNGGA,201647.00,4302.7906,N,08754.8304,W,1,09,0.8,178.6,M,-34.0,M,,*49
$GNGSA,A,3,12,05,25,02,29,15,18,21,,,,,1.5,0.8,1.2*25
$GPGSV,3,1,09,12,62,045,45,05,40,120,43,25,33,300,42,02,17,308,39*77
$GPGSV,3,2,09,29,25,200,36,15,60,120,31,18,12,080,27,21,08,020,20*75
$GPGSV,3,3,09,31,05,250,*40
$GNRMC,201648.00,A,4302.7906,N,08754.8120,W,48.6,90.0,011026,,,A*54
$GNGGA,201648.00,4302.7906,N,08754.8120,W,1,09,0.8,178.7,M,-34.0,M,,*43
$GNGSA,A,3,12,05,25,02,29,15,18,21,,,,,1.5,0.8,1.2*25
$GPGSV,3,1,09,12,62,045,44,05,40,120,42,25,33,300,41,02,17,308,38*75
$GPGSV,3,2,09,29,25,200,35,15,60,120,30,18,12,080,26,21,08,020,19*7C
$GPGSV,3,3,09,31,05,250,*40
$GNRMC,201649.00,A,4302.7906,N,08754.7935,W,48.6,90.0,011026,,,A*56
$GNGGA,201649.00,4302.7906,N,08754.7935,W,1,09,0.8,178.8,M,-34.0,M,,*4E
$GNGSA,A,3,12,05,25,02,29,15,18,21,,,,,1.5,0.8,1.2*25
$GPGSV,3,1,09,12,62,045,43,05,40,120,41,25,33,300,40,02,17,308,37*7F
$GPGSV,3,2,09,29,25,200,34,15,60,120,29,18,12,080,25,21,08,020,18*77
$GPGSV,3,3,09,31,05,250,*40
$GNRMC,201650.00,A,4302.7906,N,08754.7751,W,48.6,90.0,011026,,,A*52
$GNGGA,201650.00,4302.7906,N,08754.7751,W,1,09,0.8,178.9,M,-34.0,M,,*4B
$GNGSA,A,3,12,05,25,02,29,15,18,21,,,,,1.5,0.8,1.2*25
$GPGSV,3,1,09,12,62,045,42,05,40,120,40,25,33,300,39,02,17,308,36*70
$GPGSV,3,2,09,29,25,200,33,15,60,120,28,18,12,080,24,21,08,020,17*7F
$GPGSV,3,3,09,31,05,250,*40
$GNRMC,201651.00,A,4302.7906,N,08754.7566,W,48.6,90.0,011026,,,A*55
$GNGGA,201651.00,4302.7906,N,08754.7566,W,1,09,0.8,179.0,M,-34.0,M,,*44
$GNGSA,A,3,12,05,25,02,29,15,18,21,,,,,1.5,0.8,1.2*25
$GPGSV,3,1,09,12,62,045,41,05,40,120,39,25,33,300,38,02,17,308,35*7F
$GPGSV,3,2,09,29,25,200,32,15,60,120,27,18,12,080,23,21,08,020,16*77
$GPGSV,3,3,09,31,05,250,*40
$GNRMC,201652.00,A,4302.7906,N,08754.7382,W,48.6,90.0,011026,,,A*5A
$GNGGA,201652.00,4302.7906,N,08754.7382,W,1,09,0.8,179.1,M,-34.0,M,,*4A
$GNGSA,A,3,12,05,25,02,29,15,18,21,,,,,1.5,0.8,1.2*25
$GPGSV,3,1,09,12,62,045,47,05,40,120,45,25,33,300,44,02,17,308,41*7A
$GPGSV,3,2,09,29,25,200,38,15,60,120,33,18,12,080,29,21,08,020,22*75
$GPGSV,3,3,09,31,05,250,*40
$GNRMC,201653.00,A,4302.7906,N,08754.7198,W,48.6,90.0,011026,,,A*52
$GNGGA,201653.00,4302.7906,N,08754.7198,W,1,09,0.8,179.2,M,-34.0,M,,*41
$GNGSA,A,3,12,05,25,02,29,15,18,21,,,,,1.5,0.8,1.2*25
$GPGSV,3,1,09,12,62,045,46,05,40,120,44,25,33,300,43,02,17,308,40*7C
$GPGSV,3,2,09,29,25,200,37,15,60,120,32,18,12,080,28,21,08,020,21*79
$GPGSV,3,3,09,31,05,250,*40
$GNRMC,201654.00,A,4302.7906,N,08754.7013,W,48.6,90.0,011026,,,A*57
$GNGGA,201654.00,4302.7906,N,08754.7013,W,1,09,0.8,179.3,M,-34.0,M,,*45
$GNGSA,A,3,12,05,25,02,29,15,18,21,,,,,1.5,0.8,1.2*25
$GPGSV,3,1,09,12,62,045,45,05,40,120,43,25,33,300,42,02,17,308,39*77
$GPGSV,3,2,09,29,25,200,36,15,60,120,31,18,12,080,27,21,08,020,20*75
$GPGSV,3,3,09,31,05,250,*40
$GNRMC,201655.00,A,4302.7906,N,08754.6829,W,48.6,90.0,011026,,,A*56
$GNGGA,201655.00,4302.7906,N,08754.6829,W,1,09,0.8,179.5,M,-34.0,M,,*42
$GNGSA,A,3,12,05,25,02,29,15,18,21,,,,,1.5,0.8,1.2*25
$GPGSV,3,1,09,12,62,045,44,05,40,120,42,25,33,300,41,02,17,308,38*75
$GPGSV,3,2,09,29,25,200,35,15,60,120,30,18,12,080,26,21,08,020,19*7C
$GPGSV,3,3,09,31,05,250,*40
$GNRMC,201656.00,A,4302.7906,N,08754.6644,W,48.6,90.0,011026,,,A*50
$GNGGA,201656.00,4302.7906,N,08754.6644,W,1,09,0.8,179.6,M,-34.0,M,,*47
$GNGSA,A,3,12,05,25,02,29,15,18,21,,,,,1.5,0.8,1.2*25
$GPGSV,3,1,09,12,62,045,43,05,40,120,41,25,33,300,40,02,17,308,37*7F
$GPGSV,3,2,09,29,25,200,34,15,60,120,29,18,12,080,25,21,08,020,18*77
$GPGSV,3,3,09,31,05,250,*40
$GNRMC,201657.00,A,4302.7906,N,08754.6460,W,48.6,90.0,011026,,,A*55
$GNGGA,201657.00,4302.7906,N,08754.6460,W,1,09,0.8,179.7,M,-34.0,M,,*43
$GNGSA,A,3,12,05,25,02,29,15,18,21,,,,,1.5,0.8,1.2*25
$GPGSV,3,1,09,12,62,045,42,05,40,120,40,25,33,300,39,02,17,308,36*70
$GPGSV,3,2,09,29,25,200,33,15,60,120,28,18,12,080,24,21,08,020,17*7F
$GPGSV,3,3,09,31,05,250,*40
$GNRMC,201658.00,A,4302.7906,N,08754.6276,W,48.6,90.0,011026,,,A*5B
$GNGGA,201658.00,4302.7906,N,08754.6276,W,1,09,0.8,179.9,M,-34.0,M,,*43
$GNGSA,A,3,12,05,25,02,29,15,18,21,,,,,1.5,0.8,1.2*25
$GPGSV,3,1,09,12,62,045,41,05,40,120,39,25,33,300,38,02,17,308,35*7F
$GPGSV,3,2,09,29,25,200,32,15,60,120,27,18,12,080,23,21,08,020,16*77
$GPGSV,3,3,09,31,05,250,*40
$GNRMC,201659.00,A,4302.7906,N,08754.6091,W,48.6,90.0,011026,,,A*51
$GNGGA,201659.00,4302.7906,N,08754.6091,W,1,09,0.8,180.0,M,-34.0,M,,*46
$GNGSA,A,3,12,05,25,02,29,15,18,21,,,,,1.5,0.8,1.2*25
$GPGSV,3,1,09,12,62,045,47,05,40,120,45,25,33,300,44,02,17,308,41*7A
$GPGSV,3,2,09,29,25,200,38,15,60,120,33,18,12,080,29,21,08,020,22*75
$GPGSV,3,3,09,31,05,250,*40
$GNRMC,201700.00,A,4302.7906,N,08754.5907,W,48.6,90.0,011026,,,A*59
$GNGGA,201700.00,4302.7906,N,08754.5907,W,1,09,0.8,180.2,M,-34.0,M,,*4C
$GNGSA,A,3,12,05,25,02,29,15,18,21,,,,,1.5,0.8,1.2*25
$GPGSV,3,1,09,12,62,045,46,05,40,120,44,25,33,300,43,02,17,308,40*7C
$GPGSV,3,2,09,29,25,200,37,15,60,120,32,18,12,080,28,21,08,020,21*79
$GPGSV,3,3,09,31,05,250,*40
$GNRMC,201701.00,A,4302.7906,N,08754.5723,W,48.6,90.0,011026,,,A*50
$GNGGA,201701.00,4302.7906,N,08754.5723,W,1,09,0.8,180.3,M,-34.0,M,,*44
$GNGSA,A,3,12,05,25,02,29,15,18,21,,,,,1.5,0.8,1.2*25
$GPGSV,3,1,09,12,62,045,45,05,40,120,43,25,33,300,42,02,17,308,39*77
$GPGSV,3,2,09,29,25,200,36,15,60,120,31,18,12,080,27,21,08,020,20*75
$GPGSV,3,3,09,31,05,250,*40
$GNRMC,201702.00,A,4302.7906,N,08754.5538,W,48.6,90.0,011026,,,A*5B
$GNGGA,201702.00,4302.7906,N,08754.5538,W,1,09,0.8,180.5,M,-34.0,M,,*49
$GNGSA,A,3,12,05,25,02,29,15,18,21,,,,,1.5,0.8,1.2*25
$GPGSV,3,1,09,12,62,045,44,05,40,120,42,25,33,300,41,02,17,308,38*75
$GPGSV,3,2,09,29,25,200,35,15,60,120,30,18,12,080,26,21,08,020,19*7C
$GPGSV,3,3,09,31,05,250,*40
$GNRMC,201703.00,A,4302.7906,N,08754.5354,W,48.6,90.0,011026,,,A*56
$GNGGA,201703.00,4302.7906,N,08754.5354,W,1,09,0.8,180.6,M,-34.0,M,,*47
$GNGSA,A,3,12,05,25,02,29,15,18,21,,,,,1.5,0.8,1.2*25
$GPGSV,3,1,09,12,62,045,43,05,40,120,41,25,33,300,40,02,17,308,37*7F
$GPGSV,3,2,09,29,25,200,34,15,60,120,29,18,12,080,25,21,08,020,18*77
$GPGSV,3,3,09,31,05,250,*40
$GNRMC,201704.00,A,4302.7906,N,08754.5169,W,48.6,90.0,011026,,,A*5D
$GNGGA,201704.00,4302.7906,N,08754.5169,W,1,09,0.8,180.8,M,-34.0,M,,*42
$GNGSA,A,3,12,05,25,02,29,15,18,21,,,,,1.5,0.8,1.2*25
$GPGSV,3,1,09,12,62,045,42,05,40,120,40,25,33,300,39,02,17,308,36*70
$GPGSV,3,2,09,29,25,200,33,15,60,120,28,18,12,080,24,21,08,020,17*7F
$GPGSV,3,3,09,31,05,250,*40
$GNRMC,201705.00,A,4302.7906,N,08754.4985,W,48.6,90.0,011026,,,A*57
$GNGGA,201705.00,4302.7906,N,08754.4985,W,1,09,0.8,180.9,M,-34.0,M,,*49
$GNGSA,A,3,12,05,25,02,29,15,18,21,,,,,1.5,0.8,1.2*25
$GPGSV,3,1,09,12,62,045,41,05,40,120,39,25,33,300,38,02,17,308,35*7F
$GPGSV,3,2,09,29,25,200,32,15,60,120,27,18,12,080,23,21,08,020,16*77
$GPGSV,3,3,09,31,05,250,*40
$GNRMC,201706.00,A,4302.7906,N,08754.4801,W,48.6,90.0,011026,,,A*59
$GNGGA,201706.00,4302.7906,N,08754.4801,W,1,09,0.8,181.1,M,-34.0,M,,*4E
$GNGSA,A,3,12,05,25,02,29,15,18,21,,,,,1.5,0.8,1.2*25
$GPGSV,3,1,09,12,62,045,47,05,40,120,45,25,33,300,44,02,17,308,41*7A
$GPGSV,3,2,09,29,25,200,38,15,60,120,33,18,12,080,29,21,08,020,22*75
$GPGSV,3,3,09,31,05,250,*40
$GNRMC,201707.00,A,4302.7906,N,08754.4616,W,48.6,90.0,011026,,,A*50
$GNGGA,201707.00,4302.7906,N,08754.4616,W,1,09,0.8,181.2,M,-34.0,M,,*44
$GNGSA,A,3,12,05,25,02,29,15,18,21,,,,,1.5,0.8,1.2*25
$GPGSV,3,1,09,12,62,045,46,05,40,120,44,25,33,300,43,02,17,308,40*7C
$GPGSV,3,2,09,29,25,200,37,15,60,120,32,18,12,080,28,21,08,020,21*79
$GPGSV,3,3,09,31,05,250,*40
$GNRMC,201708.00,A,4302.7906,N,08754.4452,W,43.2,90.0,011026,,,A*52
$GNGGA,201708.00,4302.7906,N,08754.4452,W,1,09,0.8,181.3,M,-34.0,M,,*48
$GNGSA,A,3,12,05,25,02,29,15,18,21,,,,,1.5,0.8,1.2*25
$GPGSV,3,1,09,12,62,045,45,05,40,120,43,25,33,300,42,02,17,308,39*77
$GPGSV,3,2,09,29,25,200,36,15,60,120,31,18,12,080,27,21,08,020,20*75
$GPGSV,3,3,09,31,05,250,*40
$GNRMC,201709.00,A,4302.7906,N,08754.4309,W,37.8,90.0,011026,,,A*53
$GNGGA,201709.00,4302.7906,N,08754.4309,W,1,09,0.8,181.5,M,-34.0,M,,*46
$GNGSA,A,3,12,05,25,02,29,15,18,21,,,,,1.5,0.8,1.2*25
$GPGSV,3,1,09,12,62,045,44,05,40,120,42,25,33,300,41,02,17,308,38*75
$GPGSV,3,2,09,29,25,200,35,15,60,120,30,18,12,080,26,21,08,020,19*7C
$GPGSV,3,3,09,31,05,250,*40
$GNRMC,201710.00,A,4302.7906,N,08754.4186,W,32.4,90.0,011026,,,A*57
$GNGGA,201710.00,4302.7906,N,08754.4186,W,1,09,0.8,181.6,M,-34.0,M,,*48
$GNGSA,A,3,12,05,25,02,29,15,18,21,,,,,1.5,0.8,1.2*25
$GPGSV,3,1,09,12,62,045,43,05,40,120,41,25,33,300,40,02,17,308,37*7F
$GPGSV,3,2,09,29,25,200,34,15,60,120,29,18,12,080,25,21,08,020,18*77
$GPGSV,3,3,09,31,05,250,*40
$GNRMC,201711.00,A,4302.7906,N,08754.4084,W,27.0,90.0,011026,,,A*55
$GNGGA,201711.00,4302.7906,N,08754.4084,W,1,09,0.8,181.8,M,-34.0,M,,*44
$GNGSA,A,3,12,05,25,02,29,15,18,21,,,,,1.5,0.8,1.2*25
$GPGSV,3,1,09,12,62,045,42,05,40,120,40,25,33,300,39,02,17,308,36*70
$GPGSV,3,2,09,29,25,200,33,15,60,120,28,18,12,080,24,21,08,020,17*7F
$GPGSV,3,3,09,31,05,250,*40
$GNRMC,201712.00,A,4302.7906,N,08754.4002,W,21.6,90.0,011026,,,A*58
$GNGGA,201712.00,4302.7906,N,08754.4002,W,1,09,0.8,181.9,M,-34.0,M,,*48
$GNGSA,A,3,12,05,25,02,29,15,18,21,,,,,1.5,0.8,1.2*25
$GPGSV,3,1,09,12,62,045,41,05,40,120,39,25,33,300,38,02,17,308,35*7F
$GPGSV,3,2,09,29,25,200,32,15,60,120,27,18,12,080,23,21,08,020,16*77
$GPGSV,3,3,09,31,05,250,*40
$GNRMC,201713.00,A,4302.7906,N,08754.3940,W,16.2,90.0,011026,,,A*51
$GNGGA,201713.00,4302.7906,N,08754.3940,W,1,09,0.8,182.1,M,-34.0,M,,*4A
$GNGSA,A,3,12,05,25,02,29,15,18,21,,,,,1.5,0.8,1.2*25
$GPGSV,3,1,09,12,62,045,47,05,40,120,45,25,33,300,44,02,17,308,41*7A
$GPGSV,3,2,09,29,25,200,38,15,60,120,33,18,12,080,29,21,08,020,22*75
$GPGSV,3,3,09,31,05,250,*40
$GNRMC,201714.00,A,4302.7906,N,08754.3899,W,10.8,90.0,011026,,,A*5F
$GNGGA,201714.00,4302.7906,N,08754.3899,W,1,09,0.8,182.2,M,-34.0,M,,*4B
$GNGSA,A,3,12,05,25,02,29,15,18,21,,,,,1.5,0.8,1.2*25
$GPGSV,3,1,09,12,62,045,46,05,40,120,44,25,33,300,43,02,17,308,40*7C
$GPGSV,3,2,09,29,25,200,37,15,60,120,32,18,12,080,28,21,08,020,21*79
$GPGSV,3,3,09,31,05,250,*40
$GNRMC,201715.00,A,4302.7906,N,08754.3899,W,0.0,180.0,011026,,,A*57
$GNGGA,201715.00,4302.7906,N,08754.3899,W,1,09,0.8,182.4,M,-34.0,M,,*4C
$GNGSA,A,3,12,05,25,02,29,15,18,21,,,,,1.5,0.8,1.2*25
$GPGSV,3,1,09,12,62,045,45,05,40,120,43,25,33,300,42,02,17,308,39*77
$GPGSV,3,2,09,29,25,200,36,15,60,120,31,18,12,080,27,21,08,020,20*75
$GPGSV,3,3,09,31,05,250,*40
$GNRMC,201716.00,A,4302.7897,N,08754.3899,W,3.2,180.0,011026,,,A*5C
$GNGGA,201716.00,4302.7897,N,08754.3899,W,1,09,0.8,182.5,M,-34.0,M,,*47
$GNGSA,A,3,12,05,25,02,29,15,18,21,,,,,1.5,0.8,1.2*25
$GPGSV,3,1,09,12,62,045,44,05,40,120,42,25,33,300,41,02,17,308,38*75
$GPGSV,3,2,09,29,25,200,35,15,60,120,30,18,12,080,26,21,08,020,19*7C
$GPGSV,3,3,09,31,05,250,*40
$GNRMC,201717.00,A,4302.7879,N,08754.3899,W,6.5,180.0,011026,,,A*5F
$GNGGA,201717.00,4302.7879,N,08754.3899,W,1,09,0.8,182.6,M,-34.0,M,,*45
$GNGSA,A,3,12,05,25,02,29,15,18,21,,,,,1.5,0.8,1.2*25
$GPGSV,3,1,09,12,62,045,43,05,40,120,41,25,33,300,40,02,17,308,37*7F
$GPGSV,3,2,09,29,25,200,34,15,60,120,29,18,12,080,25,21,08,020,18*77
$GPGSV,3,3,09,31,05,250,*40
$GNRMC,201718.00,A,4302.7853,N,08754.3899,W,9.7,180.0,011026,,,A*55
$GNGGA,201718.00,4302.7853,N,08754.3899,W,1,09,0.8,182.7,M,-34.0,M,,*43
$GNGSA,A,3,12,05,25,02,29,15,18,21,,,,,1.5,0.8,1.2*25
$GPGSV,3,1,09,12,62,045,42,05,40,120,40,25,33,300,39,02,17,308,36*70
$GPGSV,3,2,09,29,25,200,33,15,60,120,28,18,12,080,24,21,08,020,17*7F
$GPGSV,3,3,09,31,05,250,*40
$GNRMC,201719.00,A,4302.7817,N,08754.3899,W,13.0,180.0,011026,,,A*68
$GNGGA,201719.00,4302.7817,N,08754.3899,W,1,09,0.8,182.9,M,-34.0,M,,*4C
$GNGSA,A,3,12,05,25,02,29,15,18,21,,,,,1.5,0.8,1.2*25
$GPGSV,3,1,09,12,62,045,41,05,40,120,39,25,33,300,38,02,17,308,35*7F
$GPGSV,3,2,09,29,25,200,32,15,60,120,27,18,12,080,23,21,08,020,16*77
$GPGSV,3,3,09,31,05,250,*40
$GNRMC,201720.00,A,4302.7772,N,08754.3899,W,16.2,180.0,011026,,,A*69
$GNGGA,201720.00,4302.7772,N,08754.3899,W,1,09,0.8,183.0,M,-34.0,M,,*42
$GNGSA,A,3,12,05,25,02,29,15,18,21,,,,,1.5,0.8,1.2*25
$GPGSV,3,1,09,12,62,045,47,05,40,120,45,25,33,300,44,02,17,308,41*7A
$GPGSV,3,2,09,29,25,200,38,15,60,120,33,18,12,080,29,21,08,020,22*75
$GPGSV,3,3,09,31,05,250,*40
$GNRMC,201721.00,A,4302.7718,N,08754.3899,W,19.4,180.0,011026,,,A*6D
$GNGGA,201721.00,4302.7718,N,08754.3899,W,1,09,0.8,183.1,M,-34.0,M,,*4E
$GNGSA,A,3,12,05,25,02,29,15,18,21,,,,,1.5,0.8,1.2*25
$GPGSV,3,1,09,12,62,045,46,05,40,120,44,25,33,300,43,02,17,308,40*7C
$GPGSV,3,2,09,29,25,200,37,15,60,120,32,18,12,080,28,21,08,020,21*79
$GPGSV,3,3,09,31,05,250,*40
$GNRMC,201722.00,A,4302.7655,N,08754.3899,W,22.7,180.0,011026,,,A*6D
$GNGGA,201722.00,4302.7655,N,08754.3899,W,1,09,0.8,183.2,M,-34.0,M,,*46
$GNGSA,A,3,12,05,25,02,29,15,18,21,,,,,1.5,0.8,1.2*25
$GPGSV,3,1,09,12,62,045,45,05,40,120,43,25,33,300,42,02,17,308,39*77
$GPGSV,3,2,09,29,25,200,36,15,60,120,31,18,12,080,27,21,08,020,20*75
$GPGSV,3,3,09,31,05,250,*40
$GNRMC,201723.00,A,4302.7583,N,08754.3899,W,25.9,180.0,011026,,,A*6D
$GNGGA,201723.00,4302.7583,N,08754.3899,W,1,09,0.8,183.3,M,-34.0,M,,*4E
$GNGSA,A,3,12,05,25,02,29,15,18,21,,,,,1.5,0.8,1.2*25
$GPGSV,3,1,09,12,62,045,44,05,40,120,42,25,33,300,41,02,17,308,38*75
$GPGSV,3,2,09,29,25,200,35,15,60,120,30,18,12,080,26,21,08,020,19*7C
$GPGSV,3,3,09,31,05,250,*40
$GNRMC,201724.00,A,4302.7502,N,08754.3899,W,29.2,180.0,011026,,,A*64
$GNGGA,201724.00,4302.7502,N,08754.3899,W,1,09,0.8,183.4,M,-34.0,M,,*47
$GNGSA,A,3,12,05,25,02,29,15,18,21,,,,,1.5,0.8,1.2*25
$GPGSV,3,1,09,12,62,045,43,05,40,120,41,25,33,300,40,02,17,308,37*7F
$GPGSV,3,2,09,29,25,200,34,15,60,120,29,18,12,080,25,21,08,020,18*77
$GPGSV,3,3,09,31,05,250,*40
$GNRMC,201725.00,A,4302.7412,N,08754.3899,W,32.4,180.0,011026,,,A*69
$GNGGA,201725.00,4302.7412,N,08754.3899,W,1,09,0.8,183.5,M,-34.0,M,,*47
$GNGSA,A,3,12,05,25,02,29,15,18,21,,,,,1.5,0.8,1.2*25
$GPGSV,3,1,09,12,62,045,42,05,40,120,40,25,33,300,39,02,17,308,36*70
$GPGSV,3,2,09,29,25,200,33,15,60,120,28,18,12,080,24,21,08,020,17*7F
$GPGSV,3,3,09,31,05,250,*40
$GNRMC,201726.00,A,4302.7314,N,08754.3899,W,35.6,180.0,011026,,,A*6E
$GNGGA,201726.00,4302.7314,N,08754.3899,W,1,09,0.8,183.6,M,-34.0,M,,*46
$GNGSA,A,3,12,05,25,02,29,15,18,21,,,,,1.5,0.8,1.2*25
$GPGSV,3,1,09,12,62,045,41,05,40,120,39,25,33,300,38,02,17,308,35*7F
$GPGSV,3,2,09,29,25,200,32,15,60,120,27,18,12,080,23,21,08,020,16*77
$GPGSV,3,3,09,31,05,250,*40
$GNRMC,201727.00,A,4302.7206,N,08754.3899,W,38.9,180.0,011026,,,A*6F
$GNGGA,201727.00,4302.7206,N,08754.3899,W,1,09,0.8,183.6,M,-34.0,M,,*45
$GNGSA,A,3,12,05,25,02,29,15,18,21,,,,,1.5,0.8,1.2*25
$GPGSV,3,1,09,12,62,045,47,05,40,120,45,25,33,300,44,02,17,308,41*7A
$GPGSV,3,2,09,29,25,200,38,15,60,120,33,18,12,080,29,21,08,020,22*75
$GPGSV,3,3,09,31,05,250,*40
$GNRMC,201728.00,A,4302.7089,N,08754.3899,W,42.1,180.0,011026,,,A*60
$GNGGA,201728.00,4302.7089,N,08754.3899,W,1,09,0.8,183.7,M,-34.0,M,,*4E
$GNGSA,A,3,12,05,25,02,29,15,18,21,,,,,1.5,0.8,1.2*25
$GPGSV,3,1,09,12,62,045,46,05,40,120,44,25,33,300,43,02,17,308,40*7C
$GPGSV,3,2,09,29,25,200,37,15,60,120,32,18,12,080,28,21,08,020,21*79
$GPGSV,3,3,09,31,05,250,*40
$GNRMC,201729.00,A,4302.6963,N,08754.3899,W,45.4,180.0,011026,,,A*6F
$GNGGA,201729.00,4302.6963,N,08754.3899,W,1,09,0.8,183.8,M,-34.0,M,,*4C
$GNGSA,A,3,12,05,25,02,29,15,18,21,,,,,1.5,0.8,1.2*25
$GPGSV,3,1,09,12,62,045,45,05,40,120,43,25,33,300,42,02,17,308,39*77
$GPGSV,3,2,09,29,25,200,36,15,60,120,31,18,12,080,27,21,08,020,20*75
$GPGSV,3,3,09,31,05,250,*40
$GNRMC,201730.00,A,4302.6828,N,08754.3899,W,48.6,180.0,011026,,,A*66
$GNGGA,201730.00,4302.6828,N,08754.3899,W,1,09,0.8,183.8,M,-34.0,M,,*4A
$GNGSA,A,3,12,05,25,02,29,15,18,21,,,,,1.5,0.8,1.2*25
$GPGSV,3,1,09,12,62,045,44,05,40,120,42,25,33,300,41,02,17,308,38*75
$GPGSV,3,2,09,29,25,200,35,15,60,120,30,18,12,080,26,21,08,020,19*7C
$GPGSV,3,3,09,31,05,250,*40
$GNRMC,201731.00,A,4302.6694,N,08754.3899,W,48.6,180.0,011026,,,A*6E
$GNGGA,201731.00,4302.6694,N,08754.3899,W,1,09,0.8,183.9,M,-34.0,M,,*43
$GNGSA,A,3,12,05,25,02,29,15,18,21,,,,,1.5,0.8,1.2*25
$GPGSV,3,1,09,12,62,045,43,05,40,120,41,25,33,300,40,02,17,308,37*7F
$GPGSV,3,2,09,29,25,200,34,15,60,120,29,18,12,080,25,21,08,020,18*77
$GPGSV,3,3,09,31,05,250,*40
$GNRMC,201732.00,A,4302.6559,N,08754.3899,W,48.6,180.0,011026,,,A*6F
$GNGGA,201732.00,4302.6559,N,08754.3899,W,1,09,0.8,183.9,M,-34.0,M,,*42
$GNGSA,A,3,12,05,25,02,29,15,18,21,,,,,1.5,0.8,1.2*25
$GPGSV,3,1,09,12,62,045,42,05,40,120,40,25,33,300,39,02,17,308,36*70
$GPGSV,3,2,09,29,25,200,33,15,60,120,28,18,12,080,24,21,08,020,17*7F
$GPGSV,3,3,09,31,05,250,*40
$GNRMC,201733.00,A,4302.6424,N,08754.3899,W,48.6,180.0,011026,,,A*65
$GNGGA,201733.00,4302.6424,N,08754.3899,W,1,09,0.8,183.9,M,-34.0,M,,*48
$GNGSA,A,3,12,05,25,02,29,15,18,21,,,,,1.5,0.8,1.2*25
$GPGSV,3,1,09,12,62,045,41,05,40,120,39,25,33,300,38,02,17,308,35*7F
$GPGSV,3,2,09,29,25,200,32,15,60,120,27,18,12,080,23,21,08,020,16*77
$GPGSV,3,3,09,31,05,250,*40
$GNRMC,201734.00,A,4302.6289,N,08754.3899,W,48.6,180.0,011026,,,A*63
$GNGGA,201734.00,4302.6289,N,08754.3899,W,1,09,0.8,184.0,M,-34.0,M,,*40
$GNGSA,A,3,12,05,25,02,29,15,18,21,,,,,1.5,0.8,1.2*25
$GPGSV,3,1,09,12,62,045,47,05,40,120,45,25,33,300,44,02,17,308,41*7A
$GPGSV,3,2,09,29,25,200,38,15,60,120,33,18,12,080,29,21,08,020,22*75
$GPGSV,3,3,09,31,05,250,*40
$GNRMC,201735.00,A,4302.6155,N,08754.3899,W,48.6,180.0,011026,,,A*60
$GNGGA,201735.00,4302.6155,N,08754.3899,W,1,09,0.8,184.0,M,-34.0,M,,*43
$GNGSA,A,3,12,05,25,02,29,15,18,21,,,,,1.5,0.8,1.2*25
$GPGSV,3,1,09,12,62,045,46,05,40,120,44,25,33,300,43,02,17,308,40*7C
$GPGSV,3,2,09,29,25,200,37,15,60,120,32,18,12,080,28,21,08,020,21*79
$GPGSV,3,3,09,31,05,250,*40
$GNRMC,201736.00,A,4302.6020,N,08754.3899,W,48.6,180.0,011026,,,A*60
$GNGGA,201736.00,4302.6020,N,08754.3899,W,1,09,0.8,184.0,M,-34.0,M,,*43
$GNGSA,A,3,12,05,25,02,29,15,18,21,,,,,1.5,0.8,1.2*25
$GPGSV,3,1,09,12,62,045,45,05,40,120,43,25,33,300,42,02,17,308,39*77
$GPGSV,3,2,09,29,25,200,36,15,60,120,31,18,12,080,27,21,08,020,20*75
$GPGSV,3,3,09,31,05,250,*40
$GNRMC,201737.00,A,4302.5885,N,08754.3899,W,48.6,180.0,011026,,,A*65
$GNGGA,201737.00,4302.5885,N,08754.3899,W,1,09,0.8,184.0,M,-34.0,M,,*46
$GNGSA,A,3,12,05,25,02,29,15,18,21,,,,,1.5,0.8,1.2*25
$GPGSV,3,1,09,12,62,045,44,05,40,120,42,25,33,300,41,02,17,308,38*75
$GPGSV,3,2,09,29,25,200,35,15,60,120,30,18,12,080,26,21,08,020,19*7C
$GPGSV,3,3,09,31,05,250,*40
$GNRMC,201738.00,A,4302.5750,N,08754.3899,W,48.6,180.0,011026,,,A*6D
$GNGGA,201738.00,4302.5750,N,08754.3899,W,1,09,0.8,184.0,M,-34.0,M,,*4E
$GNGSA,A,3,12,05,25,02,29,15,18,21,,,,,1.5,0.8,1.2*25
$GPGSV,3,1,09,12,62,045,43,05,40,120,41,25,33,300,40,02,17,308,37*7F
$GPGSV,3,2,09,29,25,200,34,15,60,120,29,18,12,080,25,21,08,020,18*77
$GPGSV,3,3,09,31,05,250,*40
$GNRMC,201739.00,A,4302.5616,N,08754.3899,W,48.6,180.0,011026,,,A*6F
$GNGGA,201739.00,4302.5616,N,08754.3899,W,1,09,0.8,184.0,M,-34.0,M,,*4C
$GNGSA,A,3,12,05,25,02,29,15,18,21,,,,,1.5,0.8,1.2*25
$GPGSV,3,1,09,12,62,045,42,05,40,120,40,25,33,300,39,02,17,308,36*70
$GPGSV,3,2,09,29,25,200,33,15,60,120,28,18,12,080,24,21,08,020,17*7F
$GPGSV,3,3,09,31,05,250,*40
$GNRMC,201740.00,A,4302.5481,N,08754.3899,W,48.6,180.0,011026,,,A*6D
$GNGGA,201740.00,4302.5481,N,08754.3899,W,1,09,0.8,184.0,M,-34.0,M,,*4E
$GNGSA,A,3,12,05,25,02,29,15,18,21,,,,,1.5,0.8,1.2*25
$GPGSV,3,1,09,12,62,045,41,05,40,120,39,25,33,300,38,02,17,308,35*7F
$GPGSV,3,2,09,29,25,200,32,15,60,120,27,18,12,080,23,21,08,020,16*77
$GPGSV,3,3,09,31,05,250,*40
$GNRMC,201741.00,A,4302.5346,N,08754.3899,W,48.6,180.0,011026,,,A*60
$GNGGA,201741.00,4302.5346,N,08754.3899,W,1,09,0.8,183.9,M,-34.0,M,,*4D
$GNGSA,A,3,12,05,25,02,29,15,18,21,,,,,1.5,0.8,1.2*25
$GPGSV,3,1,09,12,62,045,47,05,40,120,45,25,33,300,44,02,17,308,41*7A
$GPGSV,3,2,09,29,25,200,38,15,60,120,33,18,12,080,29,21,08,020,22*75
$GPGSV,3,3,09,31,05,250,*40
$GNRMC,201742.00,A,4302.5211,N,08754.3899,W,48.6,180.0,011026,,,A*60
$GNGGA,201742.00,4302.5211,N,08754.3899,W,1,09,0.8,183.9,M,-34.0,M,,*4D
$GNGSA,A,3,12,05,25,02,29,15,18,21,,,,,1.5,0.8,1.2*25
$GPGSV,3,1,09,12,62,045,46,05,40,120,44,25,33,300,43,02,17,308,40*7C
$GPGSV,3,2,09,29,25,200,37,15,60,120,32,18,12,080,28,21,08,020,21*79
$GPGSV,3,3,09,31,05,250,*40
$GNRMC,201743.00,A,4302.5077,N,08754.3899,W,48.6,180.0,011026,,,A*63
$GNGGA,201743.00,4302.5077,N,08754.3899,W,1,09,0.8,183.9,M,-34.0,M,,*4E
$GNGSA,A,3,12,05,25,02,29,15,18,21,,,,,1.5,0.8,1.2*25
$GPGSV,3,1,09,12,62,045,45,05,40,120,43,25,33,300,42,02,17,308,39*77
$GPGSV,3,2,09,29,25,200,36,15,60,120,31,18,12,080,27,21,08,020,20*75
$GPGSV,3,3,09,31,05,250,*40
$GNRMC,201744.00,A,4302.4942,N,08754.3899,W,48.6,180.0,011026,,,A*6A
$GNGGA,201744.00,4302.4942,N,08754.3899,W,1,09,0.8,183.8,M,-34.0,M,,*46
$GNGSA,A,3,12,05,25,02,29,15,18,21,,,,,1.5,0.8,1.2*25
$GPGSV,3,1,09,12,62,045,44,05,40,120,42,25,33,300,41,02,17,308,38*75
$GPGSV,3,2,09,29,25,200,35,15,60,120,30,18,12,080,26,21,08,020,19*7C
$GPGSV,3,3,09,31,05,250,*40
$GNRMC,201745.00,A,4302.4807,N,08754.3899,W,48.6,180.0,011026,,,A*6B
$GNGGA,201745.00,4302.4807,N,08754.3899,W,1,09,0.8,183.8,M,-34.0,M,,*47
$GNGSA,A,3,12,05,25,02,29,15,18,21,,,,,1.5,0.8,1.2*25
$GPGSV,3,1,09,12,62,045,43,05,40,120,41,25,33,300,40,02,17,308,37*7F
$GPGSV,3,2,09,29,25,200,34,15,60,120,29,18,12,080,25,21,08,020,18*77
$GPGSV,3,3,09,31,05,250,*40
$GNRMC,201746.00,A,4302.4672,N,08754.3899,W,48.6,180.0,011026,,,A*64
$GNGGA,201746.00,4302.4672,N,08754.3899,W,1,09,0.8,183.7,M,-34.0,M,,*47
$GNGSA,A,3,12,05,25,02,29,15,18,21,,,,,1.5,0.8,1.2*25
$GPGSV,3,1,09,12,62,045,42,05,40,120,40,25,33,300,39,02,17,308,36*70
$GPGSV,3,2,09,29,25,200,33,15,60,120,28,18,12,080,24,21,08,020,17*7F
$GPGSV,3,3,09,31,05,250,*40
$GNRMC,201747.00,A,4302.4538,N,08754.3899,W,48.6,180.0,011026,,,A*68
$GNGGA,201747.00,4302.4538,N,08754.3899,W,1,09,0.8,183.6,M,-34.0,M,,*4A
$GNGSA,A,3,12,05,25,02,29,15,18,21,,,,,1.5,0.8,1.2*25
$GPGSV,3,1,09,12,62,045,41,05,40,120,39,25,33,300,38,02,17,308,35*7F
$GPGSV,3,2,09,29,25,200,32,15,60,120,27,18,12,080,23,21,08,020,16*77
$GPGSV,3,3,09,31,05,250,*40
$GNRMC,201748.00,A,4302.4403,N,08754.3899,W,48.6,180.0,011026,,,A*6E
$GNGGA,201748.00,4302.4403,N,08754.3899,W,1,09,0.8,183.6,M,-34.0,M,,*4C
$GNGSA,A,3,12,05,25,02,29,15,18,21,,,,,1.5,0.8,1.2*25
$GPGSV,3,1,09,12,62,045,47,05,40,120,45,25,33,300,44,02,17,308,41*7A
$GPGSV,3,2,09,29,25,200,38,15,60,120,33,18,12,080,29,21,08,020,22*75
$GPGSV,3,3,09,31,05,250,*40
$GNRMC,201749.00,A,4302.4268,N,08754.3899,W,48.6,180.0,011026,,,A*64
$GNGGA,201749.00,4302.4268,N,08754.3899,W,1,09,0.8,183.5,M,-34.0,M,,*45
$GNGSA,A,3,12,05,25,02,29,15,18,21,,,,,1.5,0.8,1.2*25
$GPGSV,3,1,09,12,62,045,46,05,40,120,44,25,33,300,43,02,17,308,40*7C
$GPGSV,3,2,09,29,25,200,37,15,60,120,32,18,12,080,28,21,08,020,21*79
$GPGSV,3,3,09,31,05,250,*40
$GNRMC,201750.00,A,4302.4134,N,08754.3899,W,48.6,180.0,011026,,,A*66
$GNGGA,201750.00,4302.4134,N,08754.3899,W,1,09,0.8,183.4,M,-34.0,M,,*46
$GNGSA,A,3,12,05,25,02,29,15,18,21,,,,,1.5,0.8,1.2*25
$GPGSV,3,1,09,12,62,045,45,05,40,120,43,25,33,300,42,02,17,308,39*77
$GPGSV,3,2,09,29,25,200,36,15,60,120,31,18,12,080,27,21,08,020,20*75
$GPGSV,3,3,09,31,05,250,*40
$GNRMC,201751.00,A,4302.3999,N,08754.3899,W,48.6,180.0,011026,,,A*6F
$GNGGA,201751.00,4302.3999,N,08754.3899,W,1,09,0.8,183.3,M,-34.0,M,,*48
$GNGSA,A,3,12,05,25,02,29,15,18,21,,,,,1.5,0.8,1.2*25
$GPGSV,3,1,09,12,62,045,44,05,40,120,42,25,33,300,41,02,17,308,38*75
$GPGSV,3,2,09,29,25,200,35,15,60,120,30,18,12,080,26,21,08,020,19*7C
$GPGSV,3,3,09,31,05,250,*40
$GNRMC,201752.00,A,4302.3864,N,08754.3899,W,48.6,180.0,011026,,,A*6F
$GNGGA,201752.00,4302.3864,N,08754.3899,W,1,09,0.8,183.2,M,-34.0,M,,*49
$GNGSA,A,3,12,05,25,02,29,15,18,21,,,,,1.5,0.8,1.2*25
$GPGSV,3,1,09,12,62,045,43,05,40,120,41,25,33,300,40,02,17,308,37*7F
$GPGSV,3,2,09,29,25,200,34,15,60,120,29,18,12,080,25,21,08,020,18*77
$GPGSV,3,3,09,31,05,250,*40
$GNRMC,201753.00,A,4302.3744,N,08754.3899,W,43.2,180.0,011026,,,A*6C
$GNGGA,201753.00,4302.3744,N,08754.3899,W,1,09,0.8,183.1,M,-34.0,M,,*46
$GNGSA,A,3,12,05,25,02,29,15,18,21,,,,,1.5,0.8,1.2*25
$GPGSV,3,1,09,12,62,045,42,05,40,120,40,25,33,300,39,02,17,308,36*70
$GPGSV,3,2,09,29,25,200,33,15,60,120,28,18,12,080,24,21,08,020,17*7F
$GPGSV,3,3,09,31,05,250,*40
$GNRMC,201754.00,A,4302.3639,N,08754.3899,W,37.8,180.0,011026,,,A*69
$GNGGA,201754.00,4302.3639,N,08754.3899,W,1,09,0.8,183.0,M,-34.0,M,,*4B
$GNGSA,A,3,12,05,25,02,29,15,18,21,,,,,1.5,0.8,1.2*25
$GPGSV,3,1,09,12,62,045,41,05,40,120,39,25,33,300,38,02,17,308,35*7F
$GPGSV,3,2,09,29,25,200,32,15,60,120,27,18,12,080,23,21,08,020,16*77
$GPGSV,3,3,09,31,05,250,*40
$GNRMC,201755.00,A,4302.3550,N,08754.3899,W,32.4,180.0,011026,,,A*6D
$GNGGA,201755.00,4302.3550,N,08754.3899,W,1,09,0.8,182.9,M,-34.0,M,,*4E
$GNGSA,A,3,12,05,25,02,29,15,18,21,,,,,1.5,0.8,1.2*25
$GPGSV,3,1,09,12,62,045,47,05,40,120,45,25,33,300,44,02,17,308,41*7A
$GPGSV,3,2,09,29,25,200,38,15,60,120,33,18,12,080,29,21,08,020,22*75
$GPGSV,3,3,09,31,05,250,*40
$GNRMC,201756.00,A,4302.3475,N,08754.3899,W,27.0,180.0,011026,,,A*68
$GNGGA,201756.00,4302.3475,N,08754.3899,W,1,09,0.8,182.8,M,-34.0,M,,*4A
$GNGSA,A,3,12,05,25,02,29,15,18,21,,,,,1.5,0.8,1.2*25
$GPGSV,3,1,09,12,62,045,46,05,40,120,44,25,33,300,43,02,17,308,40*7C
$GPGSV,3,2,09,29,25,200,37,15,60,120,32,18,12,080,28,21,08,020,21*79
$GPGSV,3,3,09,31,05,250,*40
$GNRMC,201757.00,A,4302.3415,N,08754.3899,W,21.6,180.0,011026,,,A*6F
$GNGGA,201757.00,4302.3415,N,08754.3899,W,1,09,0.8,182.6,M,-34.0,M,,*43
$GNGSA,A,3,12,05,25,02,29,15,18,21,,,,,1.5,0.8,1.2*25
$GPGSV,3,1,09,12,62,045,45,05,40,120,43,25,33,300,42,02,17,308,39*77
$GPGSV,3,2,09,29,25,200,36,15,60,120,31,18,12,080,27,21,08,020,20*75
$GPGSV,3,3,09,31,05,250,*40
$GNRMC,201758.00,A,4302.3370,N,08754.3899,W,16.2,180.0,011026,,,A*64
$GNGGA,201758.00,4302.3370,N,08754.3899,W,1,09,0.8,182.5,M,-34.0,M,,*4B
$GNGSA,A,3,12,05,25,02,29,15,18,21,,,,,1.5,0.8,1.2*25
$GPGSV,3,1,09,12,62,045,44,05,40,120,42,25,33,300,41,02,17,308,38*75
$GPGSV,3,2,09,29,25,200,35,15,60,120,30,18,12,080,26,21,08,020,19*7C
$GPGSV,3,3,09,31,05,250,*40
$GNRMC,201759.00,A,4302.3340,N,08754.3899,W,10.8,180.0,011026,,,A*6A
$GNGGA,201759.00,4302.3340,N,08754.3899,W,1,09,0.8,182.4,M,-34.0,M,,*48
$GNGSA,A,3,12,05,25,02,29,15,18,21,,,,,1.5,0.8,1.2*25
$GPGSV,3,1,09,12,62,045,43,05,40,120,41,25,33,300,40,02,17,308,37*7F
$GPGSV,3,2,09,29,25,200,34,15,60,120,29,18,12,080,25,21,08,020,18*77
$GPGSV,3,3,09,31,05,250,*40
